company_name,country,city,address,website,products
"(ZHONGSHAN CHANLLYN ELECTRICAL APPLIANCE CO.,LTD",China,Zhongshan,"NO.13, DONGRUI 3 ROAD,DONGSHENG TOWN,ZHONGSHAN CITY,Zhongshan,Guangdong,China",,"wall lamp,IP44,bathroom pendant lampCeiling,lighting fixtures"
"3S IMPORT&EXPORT SHIJIAZHUANG CO.,LTD",China,Shijiazhuang,"2305,2309-2313 BLOCK A,HAIYUE GUOJI MANSION,NO.66 WEST YUHUA ROAD,SHIJIAZHUANG,Shijiazhuang,Hebei,China",http://www.3sapparel.com；www.solar3s.com,"foldable,Anti-UV,Anti-Aging,Leather.LCD Screen,MPPT,WiFi，solar energy"
"A.H.A INTERNATIONAL CO.,LTD.",China,Hefei,"JINAN MANSION 306 TUN XI  ROAD, HEFEI, ANHUI, CHINA,Hefei,Anhui,China",http://www.ahaint.com,"LED HOLIDAY LIGHT, CHRISTMAS LIGHT, DECORATIVE LIGHTLED plant grow light indoor bulb小夜灯，充电小夜灯"
"ACHEM ADHESIVE PRODUCT (JIANGSU) CO., LTD",China,Nantong,"No.1 Wanchio Road, Libao Town, Haian County, Jiangsu Province, China,Hai'an County,Nantong,Jiangsu,China",http://www.achem.com.tw/en/,"PVC ELECTRICAL TAPE, PVC TAPSIndustrial tapeAutomotive Tape"
"AGC Lighting Co.,Ltd",China,Shenzhen,"BUILDING A, NO.3 PLANT, JIAN AN ROAD, TANG WEI COMMUNITY, FUYONG STREET, BAOAN DISTRICT, SHENZHEN.,Bao'an District,Shenzhen,Guangdong,China",http://www.agcled.com,agcHL-37LED
"AHHUI HUANRUI HEATING MANUFACTURING CO.,LTD",China,Hefei,"LIUZI ROAD,FEIDONG ECONOMIC DEVELOPMENT ZONE,HEFEI CITY,ANHUI PROVINCE,CHINA,Hefei,Anhui,China",http://www.huanruiheatingcable.com/,"concrete curing heating cable , heating cable , floor heating cable heating cable , heat trace cable , heat cable , constant wattage heating trace cable underfloor heating mat, floor heating mat, floor heat mat , in-screed heating mat , under-tile heating mat , snowmelting heating mat, in-slab heating mat"
"Amso Solar Technology Co.,Ltd",China,Huai'an,"GaoLiangjian Pioneer Park,Hongze District,Huaian,Jiangsu Province,Huai'an,Jiangsu,China",https://www.amsosolar.com,"mono solar panel, mono 380w solar panel , mono 390w solar panel, mono solar cell panel  , large size solar panel, black solar panel  , high efficiency solar panel , high efficiency mono solar panel  , 72 cells mono solar panel, 300/350/400/450w mono solar panelhalf cell , mono solar panel , new technology solar panel, half solar cell panel , 182mm solar cell, 10BB solar panel, 144 cell，full black 550w, black solar panelspoly solar panel , poly solar cell solar panel , high efficiency solar panel , good performance solar panel , durable solar panel, 48 cells poly solar panel, poly 200w solar panel, poly 210w solar panel, poly 220w solar panel"
"ANDELI GROUP CO.,LTD.",China,Wenzhou,"NO.208,WEIQI ROAD,YUEQING ECONOMIC DEVELOPMENT ZONE YUEQING ZHEJIANG P.R.CHINA,Wenzhou,Zhejiang,China",http://www.andeligroup.com,"Limit switchmcb, circuit breaker, miniature circuit breaker Metal-clad switchgear"
"ANHUI  MASCOTOP ELECTRONIC CO.,LTD",China,Xuancheng,"NO.168 DONGCHENG AVENUE,HELI INDUSTRIAL ZONE,NINGGUO CITY,ANHUI PROVINCE,CHINA,Xuancheng,Anhui,China",http://www.mascotop.com,"capacitor, fan capacitor, CBB61 capacitor, Mascotop capacitorcapacitor, start capacitor, CD60 capacitor, Mascotop capacitorcapacitor, Microwave owens capacitor, CH85 capacitor, Mascotop capacitor"
"Anhui Anze Electric Co.,Ltd",China,Xuancheng,"38 ZHENNING RD., HELI PARK, ECONOMIC & TECH DEVELOPMENT ZONE,NINGGUO,242300 ANHUI,CHINA,Xuancheng,Anhui,China",http://www.anze.cn,"convector heater ,, bathroom heater , panel heater , electric heater , baseboard heater , electric heatersEcodesign, Lot20, Storage Heater, WiFi, ErP Readyconvector heater ,, bathroom heater , panel heater , electric heater "
ANHUI ANZHI LIGHTING & ELECTRICAL CO. LTD.,China,Hefei,"909-910 BLOCK B, FORTUNE PLAZA,SUIXI ROAD, HEFEI, ANHUI, CHINA,Hefei,Anhui,China",www.anzhilighting.com,"led, LED PANEL LAMP, PANEL LAMP, SURFACE LAMPLED lampshadelamp, LED , LED LAMP, REFLECTOR LAMP"
"Anhui Chenguang Electronic Technology Co.,Ltd",China,Huangshan,"No.127 Hui guang Road, Economic development Zone,Huangshan city,Anhui province,China,Huangshan,Anhui,China",,"air purifiers, air sterizizer, plasma sterilizerair purifiers, air sterizizer, plasma sterilizerair purifiers, air sterizizer, plasma sterilizer"
"Anhui Eagoal New Energy Group Co., Ltd.",China,Hefei,"No.8, Southeast corner of intersection of Huaitong Road and Tonghuaizhong Road,Xinzhan District, Hefei City, Anhui Provi,Hefei,Anhui,China",http://www.eagoal.com.cn,3.2v340ah/lithium/cell
"ANHUI ELECTRONICS INDUSTRIAL CO., LTD.",China,,"7/F.,CHENGUANG BLDG.,399 CHANGJIANG ROAD, HEFEI,ANHUI,CHINA,China",www.aheico.com,"ledfilamentbulb, decorativelight, vintagebulb, ledbulb, LEDglass bulb, LED light , LED globe bulb, LED Straight filament, Frosted coverLED DOWNLIGHT, DOWNLIGHT, CEILING LIGHT, PLASTIC DOWNLIGHT, 30W DOWNLIGHT, ALU DOWNLIGHT, LED ALU DOWNLIGHT, 20W DOWNLIGHTled bulb, led lamp, e27 bulb, e14 bulb, mini globe, globle bulb, e14 bulb, e27 bulb, 5w bulb, mini globe 6w e14 led bulb"
"Anhui Feida Electrical Technology Co., Ltd.",China,Xuancheng,"NO.1, SANJIN ROAD, NINGGUO CITY, ANHUI PROVINCE,Xuancheng,Anhui,China",http://ahfddq.com,"CBB65A-1 type S2, class B metal capacitorCBB65A-1 type 40μF 250V washing machine capacitorCBB65A-1 type washing machine capacitor"
"ANHUI HERRMAN IMPEX CO., LTD",China,Hefei,"16TH FLOOR, BUILDING C, FORTUNE PLAZA, NO.287, SUIXI ROAD, HEFEI, ANHUI, CHINA,Hefei,Anhui,China",http://www.herrman.com,"8A gate sensitive unidirectional thyristorrX0805(T, Thyristor Bidirectional , thyristor scr, SCR and TRIAC  , thyristor"
"ANHUI IMP. & EXP.CO.,LTD.",China,,"669 CHANGJIANG ROAD HEFEI ANHUI CHINA,China",http://www.aniec.com,"LED light, LED STREET LIGHT, SOLAR LIGHT, SOLAR STREET LIGHTLED, LED bulb, FAN BLADE BULBLED Solar Emergency Bulb"
"ANHUI LEADER ELECTRONICS MFG. CO., LTD",China,Anqing,"JIXIAN INDUSTRIAL PARK, DAGUAN ECONOMIC DEVELOPMENT ZONE,ANQING,ANHUI,P.R.CHINA,Anqing,Anhui,China",http://www.leadercable.com.cn,"FR-coaxial cableRG6, RG59cat.6 cable"
ANHUI LEOCH POWER SUPPLY CORP.,China,Huaibei,"ECONOMIC DEVELOPMENT ZONE, SUIXI TOWN, HUAIBEI CITY,ANHUI PROVINCE, CHINA.,Suixi County,Huaibei,Anhui,China",http://www.leoch.com,"VRLA Battery, lead acid battery, UPS battery, 12v 9ah sealed lead acid battery, emergency light battery, toy car batteryVRLA Battery, lead acid battery,  UPS battery, 12v 12ah sealed lead acid battery, emergency light battery, toy car batteryAGM Gel, 12V100AH"
"Anhui LiangLiangElectronic Tech.CO.,LTD.",China,Xuancheng,"ECONOMIC DEVELOPMENT ZONE OF GUANGDE COUNTY,Xuancheng,Anhui,China",http://www.zjlamp.com,"Bulb , LEDflood lightRotatable Spot Light"
"BEIJING FAR BLUE OCEAN IMPORT & EXPORT O.,LTD",China,,"ROOM620,SIX FLOOL,NO.154 NORTH ZHUAN CHANG ,TONGZHOU DISTRICT,BEIJING CHINA,Beijing,China",http://WWW.FBOSAFETY.CN,circuit breaker
Beijing Golden Harvest Science and Technology Development CO Ltd,China,,"Area A, Floor 4, Xinxing Hotel, No. 17, West Third Ring Middle Road, Haidian District, Beijing, China,China",https://jskj.xxg.com.cn,"semi-flexible solar panel，RV, Boat flexible solar panelportable solar panel, foldable solar panel，solar blanketportable solar panel, foldable solar panel，solar blanket for camping"
BEIJING GUOMAOCHENG IMP. & EXP.CORP.,China,City,"NO.90,CHONG WAI STREET,CHONG NEN DISTEICT BEIJING,City,Beijing,China",,超亮绿色灯条Light strip with plug绿色灯条
"BEIJING JOYWIN FASHION TEXTILE CO.,LTD",China,City,"NO.3 YINGQUAN ST.YANGQING DISC,BEIJING,City,Beijing,China",http://snowlotus.com.cn,Light bar
BEIJING LONGY IMPORT & EXPORT CO.LTD.,China,,"ROOM 201,BLOCK C, ZUOJIAZHUANG EAST,CHAOYANG DISTRICT,BEIJING,Beijing,China",,"IP65，, Solar lamp  Solar lamp Solar lamp"
BEIJING METALS&MINERALSCORP.,China,City,"13-204,3AREA FANHCHENGYUAN FANGZHUANG,FENTAIDIST,BEIJING,City,Beijing,China",http://www.bjmmt.com,mmt
BEIJING NAMKWONG JOLLY IMP.&EXP.CORP,China,City,"A527.99CENTURY BUILDING WANGFUJING STREET.BEIJING,City,Beijing,China",,"lamp, table  lamp, ceramictable lamp, ceramic lamp, desk lamp, lighting, ceramic table lamp，home decoration, linen shadetable lamp, ceramic lamp, lighting,desk lamp"
"BEIJING NEW FRIEND INSULATION MATERIAL  CO., LTD",China,,"BEIJING OPTO-MECHATRONICS INDUSTRIAL PARK, CIQU,Beijing,China",http://www.china-insulation.com,insulation partsglass cloth sheetcotton sheet
BEIJING PENGFA TEC &  TRADE CO.,China,City,"ROOM 1329,NO 9/NO 3YUAN NANYAO CUN FENGTAI DISTRICT,BEIJING CHINA,City,Beijing,China",,Cross screwdriverWall switchtable lamp
"BEIJING SHENGLIN RUNJING TECHNOLOGY & TRADE CO.,LTD",China,,"KAOSHANJI PINGGU DISTRICT,BEIJING,CHINA,Beijing,China",http://www.shenglin.net,"led treesGarden light tree, LED, GARDEN, DECORATION, TREE, ARTIFICIAL, LIGHTled trees"
"BEIJING SHOWING TECHNOLOGY CO.,LTD.",China,City,"ROOM 2622, TOWER A, WANDA PLAZA, TONGZHOU DISTRICT, BEIJING,Tongzhou District,City,Beijing,China",,"LED Panel Light, down light, Downlight, Panel Light, ROUND Panel LightLED Panel Light, down light, Downlight, Panel Light, ROUND Panel LightLED Panel Light, down light, Downlight, Panel Light, ROUND Panel Light"
"Beijing trade sincere Import & Export Co., Ltd.",China,City,"NO. 28, CHAOYANG DISTRICT, BEIJING, NO. 401, NO.,Chaoyang District,City,Beijing,China",,"COB, panel light, glass panel light, hidden, round, square, energy savinground panel light, hidden, energy saving,  LED, highlight, high quality, wood color, fashion, special, sale wellLed diecast UFO bulb"
"BEIJING YONGCHENG XINHONG INTRENATIONAL IMPORT AND EXPORT TRADE CO.,LTD",China,City,"Second Floor of Building D, Block 2, Yanshanggang North Road, Fangshan District, Beijing, 2006,City,Beijing,China",,"junction box , waterproof junction box, outdoor junction box, j box , ip65 junction box , electrical junction box , weatherproof electrical junction box , junction box price , joint box joint box "
"BEITETONGXIN CO.,LTD.INNER MONGOLIA",China,Hohhot,"EXPORT PROCESSING DISTRICT,JINCHUAN DEVELOPMENT DISTRICT,HOHHOT,INNER MONGOLA.,Hohhot,Inner Mongolia,China",,Beverage vending machine
BEJING SINOTECHTON TECHNOLOGY CO.LTD,China,City,"RM11C09,CHANGYIN BUILDING,NO.88 YONGDING RD.HAIDIAN DISTRICT,BEIJING,City,Beijing,China",,Switch socket
"Benxi Guangzheng Tungsten & Molybdenum Co.,LTD",China,Benxi,"WEINING COUNTRY ,GAOTAIZI  TOWN ,MINGSHAN DISTRICT BENXI,Benxi,Liaoning,China",http://www.chinamowti.com,"Molybdenum plate, semiconductorsHigh temperature furnacemolybdenum tube"
"Better Gold Co.,Ltd,Beijing",China,City,"506 Chaoyang District, Beijing, 4th Floor, 13th South Road, Agricultural Exhibition Hall,Chaoyang District,City,Beijing,China",491038065@qq.com,"LED green emergency light , double-sided , surface mountemergency driverLED green emergency light , surface mount, emergency twinspot, two head light"
"BIBO Electronic(ShenZhen)Co.,Ltd",China,Shenzhen,"North and Third Floors of Building 8, Xufa Science and Technology Park, No. 6 Industrial Zone, Heshuikou Community, Matian Street, Guangming New District, Shenzhen,Shenzhen,Guangdong,China",,megaphoneswitching power supply
Blue carbon Technology Inc.,China,Rizhao,"NO.C1, TECHNOLOGY INNOVATION CENTER, HIGH-TECH ZONE,               276800 RIZHAO CITY, SHANDONG PROVINCE, CHINA,Rizhao,Shandong,China",www.bluecarbontech.com,"Solar street light，Solar street light，Solar King lightLiFePO4 Battery Pack,Solar Energy System,Lithium-ion battery pack"
"BOBAI NATIONAL WEAVING CRAFTS FACTORY GUANGXI,CHINA",China,Yulin,"169 XING LONG DONG ROAD,BOBAI COUNTY,GUANGXI,CHINA,Yulin,Guangxi,China",http://www.xminzu.com,rattan bamboo woven table lampshadeHoney color seagrass woven pear shape lampshaderattan with iron frame chandelier lampshade
"BOLD HUNTER IMPORT & EXPORT (TIANJIN) CO.,LTD.",China,City,"RM319,KUNMING BLDG,NO.66 KUNMING ROAD,NANYINGMEN SUB-DISTRICT HEPING DISTRICT,TIANJIN,Heping District,City,Tianjin,China",https://boldhunter.en.alibaba.com/?spm=a2700.shop_cp.88.4,ELECTRIC BLANKETELECTRIC BLANKET
"BONLE(FUJIAN)ELECTRIC MANUFACTURING CO.,LTD",China,Fuzhou,"91# TAIYU RD.,FUWAN PIAN,JINSHAN INDUSTRY,CANGSHAN AREA,Fuzhou,Fujian,China",http://WWW.BONLE.NET,High voltage CUTOUT FUSE 10KV-15KV FCO-933kv standoff bundled composite insulatorBonle Ansi 54-2 Strain Type Porcelain Insulator
"CANGXI QIHONG TRADING CO.,LTD",China,Guangyuan,"ZIYUNINDUSTRIAL,ESTATE LINGJIANG TOWN,CANGXI COUNTY,Guangyuan,Sichuan,China",,"Self adjesive tie mount, Cable tie mount, Cable tie holderVoltage tester, Electrical tester, Line tester, Wire tester, Phase tester, Circuit tester, Electroprobe, Tester pen, Electric test pencil, Screwdriver test penVoltage tester, Electrical tester, Phase tester, Circuit tester, Line tester, Wire tester, Electroprobe, Electric test pencil, Tester pen, Screwdriver test pen"
"Catic Dalian Trade Development Co.,Ltd",China,Dalian,"NO.19 RENMIN ROAD,ZHONGSHAN DISTRICT,DALIAN,Dalian,Liaoning,China",,"007Castlight Floodlight Workshoplamp Lndustrial lighting fixtures  110V,   220V   ,85-265V Waterproof IP65024Solar iintegrated steet lamp holder Solarlamp Walllight Waterpooflight Outdoorlight020Profile aluminum iodine tungstenlamp  splicing section projection  profile aluminum projection"
"CECEP LATTICE TECHNOLOGY CO.,LTD",China,Nanchang,"NO.699 NORTH AIXIHU ROAD,NATIONAL HI-TECH INDUSTRIAL DEVELOPMENT ZONE,NANCHANG,JIANGXI,PR CHINA,Nanchang,Jiangxi,China",http://www.latticelighting.com,LED moduleLED street lightLED street light
"CEHENG FRIENDSHIP IMP. & EXP. TRADING CO., LTD.",China,,"Room 203,2nd floor, E-commerce Public Service Center, Zhiheng County, Qianxinan Prefecture, Guizhou Province,China",,LEDLEDLED
"CF GROUP SZKMS CO.,LTD",China,Shenzhen,"ROOM 101,BUILDING12,RENMIN ROAD 221ST,FUMIN COMMUNITY,FUCHENG STREET,LONGHUA DISTRICT,SHENZHEN,Shenzhen,Guangdong,China",http://www.kmscn.com,"LITHIUM BATTERY HEAD LAMP, DIMMABLE, ADAPTOR, WALKING AT NIGHTLED FLASHLIGHT, SPOT LIGHT, DIFFUSED LIGHT, HIGH BRIGHTNESS, ENVIRONMENTALNight light, With vibration induction control , White light + colorful light, Wireless fast charging function,  Pat night light , Silicone material"
"CHANGAN GROUP CO.,LTD.",China,Wenzhou,"NO.288 WEI 17 ROAD,ECONOMIC DEVELOPMENT ZONE,YUEQING,Wenzhou,Zhejiang,China",http://www.changangroup.com.cn,"Loadbreak Elbow ConnectorACB,  intelligent universal circuit breaker,  intelligent circuit breakerCurrent Transformer"
"Changchun Boxin Photoelectric Co., Ltd.",China,Changchun,"No.155, Zhuoyue E St., High-tech Development District, Changchun, China,Changchun,Jilin,China",www.bxoptic.com,"long focus lense，IR lense，optical lenseanti-reflection thin film, Semi-Reflective thin film, High-Reflective thin film, Filter thin film, Metal thin film, Polarized thin film, Non-Polarized thin film, depends on customers request and the wavelength range covers from DUV to FIRCylindrical Lenses， Aspherical Lenses， Flat Optical Components， Toric Lenses， Spherical Lenses， Prisms， Freeform Products， Large-scale Optics"
"Changfeng Wire & Cable Co., Ltd",China,Cangzhou,"Shaheqiao Industrial Zone, Cangzhou City, Hebei Province,Hejian City,Cangzhou,Hebei,China",http://www.changfenggroup.com,"Medium voltage power cable, CWS Copper wire screen, Armoured cable , AS1429.1, CU/XLPE/CWS/PVC/AWA/PVC/HDPE, LV cable , MV cable, PVC cable , HDPE cable, SWA cable Flexible  Cable, class 5 AL, X-90, X-HF-110, SDI, Power Cable, X-90 cable 0.6 / 1 kV,  termite proof, double brass copper tape , Control Cable , AS/NZS 5000.1, DBT cable, LV power cable, underground cable, project cable, cable manufacture"
"CHANGHONG PLASTICS GROUP IMPERIAL PLASTICS CO.,LTD",China,Wuhu,"4999 EXPRESS WAY ,XINWU INDUSTRIAL DEVELOPMENT ZONE,WUHU,ANHUI.,Wuhu,Anhui,China",http://www.chs.com.cn,"CHS Stainless Steel Cable Ties, code tie,cod ties Cable MarkersCable Glands"
"CHANGSHA EVERMORE ELECTRICAL CO.,LTD",China,Changsha,"RM615,DONGFANGYINZUO ,NO.348,YUANDA RD,Changsha,Hunan,China",http://www.emelectrical.cn/,MALLEABLE BOXMALLEABLE BOXLONG MALE BUSH
CHANGSHA J&W ELECTRONICS CORP.LTD.,China,Changsha,"16B HONGFEI BUILDING BAYI ROAD CHANGSHA,Changsha,Hunan,China",http://www.jwe.cn,REPLACEMENT HYBRID CAR BATTERYHYBRID CAR BATTERY   PRUIS 1 GENERATIONREPLACEMENT OF HYBRID CAR BATTERY 
"Changshu Zhongcheng Tool Box Co.,Ltd",China,Suzhou,"MEILI INDUSTRY PARK CHANGSHU CITY JIANGSU PROVINCE,Suzhou,Jiangsu,China",http://chinactg.com,tooltool boxtool box
"CHANGXING  POTEK ELECTRONICS & TECHNOLOGY CO., LTD.",China,Huzhou,"NO.1218,Taihu Avenue,Taihu Subdistrict,Changxing city,Huzhou Country,Zhejiang,P.R.C.313199,Huzhou,Zhejiang,China",www.ipotek.en.alibaba.com,smart socketUs outdoor 2-outlet smart plugOffline voice strip light
"Changxing Fanya SMART Lighting Co., Ltd.",China,Huzhou,"NEW INDUSTRAL PARK, HUAXI, CHANGXIN,Huzhou,Zhejiang,China",http://www.fanyalighting.com,LED lighting、LED ceiling lamp、LED wifi lampLED Mirror front lamp、LED Lighitng、LED lampLED LIGHTING、LED LAMP、LED panel lamp
"Changzhou Aladdin Lighting Tech CO.,LTD",China,Changhzou,"NO10,XIANGYUN ROAD  WUJIN ECONOMIC AND DEVELOPEMENT  DISTRICT CHANGZHOU,JIANGSU,Changhzou,Jiangsu,China",http://www.ctlamp.com,SMD LED BULBLED SMD BULB
"CHANGZHOU ALLIED MARINE SUPPLIES CO.,LTD",China,Changhzou,"16/F NO.301 MID TONGJIANG AVE, XINBEI  DISTRICT, CHANGZHOU CITY.,Changhzou,Jiangsu,China",http://www.acelux.com,Marine junction boxfluorescent ceiling lightwork light
"CHANGZHOU BETA UNITED ELECTRONICS CO.,LTD.",China,Changhzou,"Room 2012, 2/F, Building 10, No.2188 Longcheng Dadao,Zhonglou Dist., Changzhou City, Jiangsu Pr., China,Changhzou,Jiangsu,China",www.betaunitedelec.com,SPEAKERSPEAKERSPEAKER
"CHANGZHOU CHIXUN ELECTRONIC CO.,LTD",China,Changhzou,"NO.112 MIAOQIAN NORTH ROAD,WUJIN,CHANGZHOU,JIANGSU,Changhzou,Jiangsu,China",http://www.ac-accessories.com,"video adapter,F connectorF FEMALE TO FEMALE,F CONNECTOR,CONNECTORadapter,connector,RCA plug"
"Changzhou D & Y electrical Lighting Co.,Ltd",China,Changhzou,"No.91 zhouqiao street west,WUJIN DISTRICT,CHANGZHOU,Changhzou,Jiangsu,China",http://www.cnczdy.com,"LED Tube lamp T8LED  tri-proof lightLED IP65 emergency tri-proof light, Emergency light, led emergency light, Outdoor led emergency light"
"CHANGZHOU DAHUA IMP.& EXP.(GROUP) CORP.,LTD.",China,,"HENGYUAN BUILDING,NO.180 GUANHE WEST ROAD,CHANGZHOU,CHINA,China",http://www.dahuagroup.com.cn,SOLAR PANELSOLAR PANELSOLAR PANEL
"CHANGZHOU FENGSHENG OPTOELECTRONICS CO.,LTD",China,Changhzou,"NO.406 HANJIANG ROAD,NEW NORTH DISTRICT,CHANGZHOU,JIANGSU,CHINA,Changhzou,Jiangsu,China",http://www.fsoptronics.com,"PMMA , LGP, Panel, Ligting, OpticalDIFFUER, SHEET, PLATE, LED, PANEL, LIGHTING, PMMACLASSROOM, PANEL, LIGHITNG, LED"
"CHANGZHOU GAORUI ELECTRIC CO.,LTD",China,Changhzou,"NIUTANG TOWN WUJIN DISTRICT CHANGZHOU JIANGSU P.R.CHINA,Changhzou,Jiangsu,China",http://www.lampshouse.com,"LED, Flood Light, LED Flood LightLED, Panel Light, SurfaceLED, Street Light, LED Street Light"
"Changzhou Green Lighting Co.,Ltd",China,Changhzou,"269 Fumin Road, Changzhou, China,Changhzou,Jiangsu,China",www.china-greenlighting.com,"LED ROAD LIGHT; LED STREET LIGHTLED GARDEN LIGHT, GARDEN LIGHTLED FLOOD LIGHT, FLOOD LIGHT,LIGHTING FIXTURE"
"CHANGZHOU HAIGAO INTERNATIONAL TRADE CO.,LTD.",China,,"ROOM411.SEALAND PLAZA.NO.20 GUANGHUASTREET.CHANGZHOU.JIANGSU.CHINA,China", http://www.globalsources.com/haigao.co,"TV SPLITTERF CONNECTORTV ANTENNA, ANTENNA，INDOOR ANTENNA"
"CHANGZHOU J&H IMPORT & EXPORT CO.,LTD",China,Changhzou,"CHANGZHOU J&H IMPORT & EXPORT CO.,LTD,Changhzou,Jiangsu,China",,COB LED STRIP
Changzhou Jia Hui Source Technology Co.LTD,China,Changhzou,"No.9 Yijing Road Yantang Town Jijtan District Changzhou City,Changhzou,Jiangsu,China",WWW.czjiahui.cn,"Solar camping lights, waterproof camping lights, dimming camping lightsSmdll table lamp,  Night lamp,  Holiday gift lightPool light, pool light, underground light, underwater light, fountain light, waterproof light"
"CHANGZHOU JINKAI LIGHTING ELECTRICAL APPARATUS CO.,LTD",China,Changhzou,"NO.11,DONGLONG ROAD,NIUTANG INDUSTRIAL ZONE,WUJIN,CHANGZHOU,JIANGSU,P.R.C,Changhzou,Jiangsu,China",http://www.jinkailighting.com,"METAL HALIDE LAMP, CERAMIC METAL HALIDE LAMPLED, LED filament lampINFRARED HEAT LAMP"
"Changzhou Liyuan New Energy Technology Co.,Ltd",China,Changhzou,"No. 519, Jiangdong Avenue, Jintan District, Changzhou, Jiangsu,Changhzou,Jiangsu,China",www.liyuane.cn,LFPLMFPLFP
"CHANGZHOU MACHINERY & EQUIPMENT IMP. & EXP. CO., LTD.",China,Changhzou,"62 XINGGANG RD.,CHANGZHOU,JIANGSU,CHINA,Changhzou,Jiangsu,China",http://www.amecco.com,"LAWN,GARDEN, LIGHT, SOLARSOLAR, STREET LIGHTSOLAR, STREET LIGHT"
"CHANGZHOU OCEAN IMP. & EXP.CORP.,LTD.",China,Changhzou,"Room 653,Jiaye International Trade Squire,No.99,Yanling West Road Zhonglou District,Changzhou,Jiangsu,China,Changhzou,Jiangsu,China",http://www.ocsonic.com,"4 Gauge 1600 Watt Value AMP Kit CompleteDC power cable; , 2.1*5.5; CCTV cameraRG6 Compression F Type Straight Antenna Cable Conn"
"CHANGZHOU ONE WORLD INTERNATIONAL TRADE CO., LTD.",China,Changhzou,"CF3, R&D HUB 1,MID CHANGWU ROAD, CHANGZHOU, JIANGSU,Changhzou,Jiangsu,China",http://www.cnowi.com,Computer power cableFiltro De LinhaSurge protector
"CHANGZHOU REACH DOUBLEWIN IMP&EXP CO.,LTD",China,Changhzou,"RM513-2 NO.2. NO.88 HUANGHE EAST RD XINBEI ZONE CHANGZHOU JIANGSU CHINA,Changhzou,Jiangsu,China",http://czrqdy.en.e-cantonfair.com/,"Led flood light, Flood light, Out door light, water proof, High brightness, full powerLed flood light, Flood light, Out door light, water proof, High brightness, High power , Led high bayLed flood light, Flood light, Out door light, water proof, High brightness, High power , Modular flood light"
"CHANGZHOU RICHLUX LIGHTING TECHNOLOGY CO., LTD",China,Changhzou,"zhengping village lijia town, wujin, changzhou jiangsu china,Changhzou,Jiangsu,China",,HIGHBAY
"CHANGZHOU SHANGYOU LIANYI ELECTRONIC CO,.LTD.",China,Changhzou,"YOUYI VILLAGE, LUOYANG TOWN, WUJIN DISTRICT, CHANGZHOU, JIANGSU, P.R.CHINA,Changhzou,Jiangsu,China",http://www.sunyooo.com,LED TUBE LIGHTSsolar folding charger portable solar kits 
"Changzhou Shine Science & Technology Co.,Ltd",China,Changhzou,"No.318,Wuyi Road, Economic Development Zone of Qi Shuyan , Changzhou , Jiangsu ,China213025,Changhzou,Jiangsu,China",www.shine-xunan.com,powered air purifying respiratorsWelding helmet &PAPR
"CHANGZHOU SMINTECH CO., LTD.",China,Changhzou,"605-2 BUILDING YIKANG PLAZA,NO.65 GUANHE MIDDLE ROAD,CHANGZHOU,JIANGSU,CHINA.,Changhzou,Jiangsu,China",http://www.smintech.net,"ceiling speaker, speakerceiling speaker, speakerspeaker, ceiling speaker"
"CHANGZHOU TOWNLITE LIGHTING ELECTRIC CO., LTD",China,Changhzou,"NO.118. HOULU VILLAGE, NIUTANG TOWN, CHANGZHOU, JIANGSU, CHINA,Changhzou,Jiangsu,China",http://www.townlite-lighting.com,"LED STREET LIGHT , SOLAR LED STREET LIGHT, SOLAR LED STREET LIGHT 60W, SOLAR LED STREET LIGHT 120W, SOLAR LED STREET LIGHT 180WHPS GROW LIGHT, 600W GROW LIGHT, HPS 600W, 600W SODIUM LAMP, 600W HPS BULBHPS GROW LIGHT, 1000W SODIUM LAMP, 1000W HPS BULB, 1000W GROW LAMP, 1000W DE HPS"
"Changzhou Trendecor Co., Ltd.",China,Changhzou,"Room 1408, Building B, Tianning Times Square, No. 19 Zhulin Xilu, Changzhou, Jiangsu, China,Changhzou,Jiangsu,China",https://trendecor.en.alibaba.com,"light box, neon lights, decorative lights, mood lightslight box, neon lights, decorative lights, mood lightslight box, neon lights, decorative lights, mood lights"
"changzhou upsystem power Co., ltd.",China,Changhzou,"NO.2188 LONGCHENG ROAD, BUILD NO.3, CHANGZHOU, JIANGSU, CHINA,Changhzou,Jiangsu,China",http://www.upsystem.cn,"Lithium BatteryLithium BatteryUPS, Online UPS"
"Changzhou V-Young International Trading Co., Ltd.",China,Changhzou,"Rm. 1216, Block D, Creative Park, No. 9 Taihu East Rd., Changzhou City,Changhzou,Jiangsu,China",http://www.czvyoung.com,"Solar Lamp，Outdoor LampSolar Garden ,Light OutdoorCute"
"CHANGZHOU XIULIN INTERNATIONAL TRADE CO., LTD",China,Changhzou,"36# YUANSHANYAJU,LONGHUI ROAD,CHANGZHOU,JIANGSU,Changhzou,Jiangsu,China",http://www.chinalinhui.com,"AUDIO CABLE, 3.5MM STEREO -3.5MM STEREO CABLE3 Prong C14 Plug EU AC Laptop Power Cable, power cable, electric cooker power cablePLIER, PLIERS"
"CHANGZHOU YINLEI ELECTRONIC CO., LTD.",China,Changhzou,"NO.8, W.HEXIANG RD, WUJIN ECONOMIC DEVELOPMENT ZONE, JIANGSU, CHINA,Changhzou,Jiangsu,China",http://www.yinlei.com,"Conduit fittings, EMT CONNECTORS, yinlei, emt fitings, rigid fittingsconduit bodies, emt fittings, rigid fittings, yinlei, conduit fititngs, aluminum junction box, aluminum boxconduit fittings, yinlei, EMT CONNECTORS, Connector, yinlei, emt fitings, rigid  fitings"
CHANGZHOU YUYANG IMPORT&EXPORT COMPANY LTD.,China,Changhzou,"ROOM 807-809 BUILDING NO.2,FUCHEN BUILDING,NO.8 TAIHU EAST ROAD,XINBEI DISTRICT,CHANGZHOU,JIANGSU,Changhzou,Jiangsu,China",http://www.yuyangelec.com,SPLITTERCONNECTORSTYPE C /LIGHTNING/MICRO CABLE
"CHANGZHOU ZUNYUAN INTERNATIONAL TRADE CO.,LTD",China,Changhzou,"ROOM 402,SEALAND PLAZA,NO.20 GUANGHUA STREET,CHANGZHOU,CHINA,Changhzou,Jiangsu,China",http://czbyie.com.cn,Solar Street LampSOLAR GENERATORSOLAR GENERATOR
"CHAOWEI POWER CO., LTD",China,Huzhou,"XINXING INDUSTRY PARK, ZHICHENG TOWN, CHANGXING COUNTY, ZHEJIANG, CHINA,Huzhou,Zhejiang,China",http://www.cnchaowei.com,"lithium batteries, electric vehicles battery, 18650 batteriesVRLA gel battery for electric bicycle, 12V22ah lead acid battery, directly supplied by Chilwee manufacturer batterylithium battery, 48V lithium battery, green and environmental friendly electric bicycle "
"ChaoZhou Hailan Electronics CO,LTD",China,Chaozhou,"Feilibao Industrial Zone,Xinbu Road,Tongle Village,LongGang District,ShenZhen,China,Chaozhou,Guangdong,China",http://envis.com.cn/,"Indoor lighting, LED light, LED ceiling Lamp, remote control, Phone APP control, Smart Lighting, Light ceilingIndoor lighting, LED light, LED ceiling Lamp, remote control, Phone APP control, Smart Lighting, Light ceilingBluetooth music ceiling lamp, smart home option, Controlled by controller and Phone APP, with multifunction, such as play music, RGB light, bluetooth speaker ceiling light, modern led chandeliers"
"Chengdu ACT Technology Co., LTD",China,Chengdu,"1504, Floor 15, Building 1, 27 Hanghang Road, Chenghua District, Chengdu City, Sichuan Province,Chengdu,Sichuan,China",,"solar home energy storage batteries bms， 1a 2a active balance smart bms， bms board with screen lcd can rs485，100/200/300a bms systemSmart BMS, Ion/Lifepo4 battery management system,  200A 300A 500A 600A BMS, bms with can communucationhardware bms, small size bms protection board, BMS protection board, BMS hardware protection board"
CHENGDU C&R MANUFACTURE GROUP,China,Chengdu,"NO.117, GULOU SOUTH STREET, CHENGDU, CHINA,Chengdu,Sichuan,China",,"resistor,wire-wound resistor,fuse resistorshunt,precision shuntresistor,wire-wound resistor,fuse resistor"
"Chengdu C-Treng Trade Co.,Ltd",China,Chengdu,"No,903,9th floor,Building 2,1501 Riyue Avenue Section,Qingyang District,Chengdu,Chengdu,Sichuan,China",,"Smart USB, Safety protection door socketUniversal adapter socket/expansion socket/extension cable socketUniversal socket"
"CHENGDU EVERSTAR LIGHTING CO., LTD",China,Chengdu,"NO.288, SOUTH OF HUXIAN ROAD, PENGZHOU CITY, SICHUAN PROVINCE, P.R.C,Chengdu,Sichuan,China",http://WWW.CDTXL.COM,光感灯丝灯灯丝灯灯丝灯
"Chengdu Hizima Technology Co.,Ltd",China,Chengdu,"D2-2F, NO.199 MOLD INDUSTRIAL PARK, XIQU AVENUE,HI-TECH WEST ZONE,CHENGDU, SICHUAN, CHINA.,Pidu District,Chengdu,Sichuan,China",http://www.hizima.com,"Concealed Lock， Smart Lock，Bluetooth Lock, Electronic Lock, Keyless lockSmart padlock, Padlock, Keyless padlock, Bluetooth padlock, All weather padlock, Outdoor padlock, keyless lock solutioncam lock, smart cam lock, Camlock, Smart Camlock"
"Chengdu HKV electronic technology Co.,ltd.",China,Chengdu,"NO.27 Hangtian Road,Longtan Industrial Park, Chengdu city, China.,Chengdu,Sichuan,China",,"Solar lighting industrial lamp ufo led high bay light，Solar hightbay light industrial led ufo high bay light，smart Solar warehouse industrial high bay lightenergy saving led solar panel flood light，cool white outdoor led solar powered flood light 100w 200w 300w，300w 400w 500w high quality ip66 led solar flood lightled street lights, outdoor street lights, waterproof die-cast street lights"
"Chengdu Pauly International Trade & Technology Co., Ltd",China,,"11F,No.206 Shuncheng Ave. CHENGDU ,CHINA,China",http://www.cnpauly.com,Cooling fan
"CHENGDU PEDARO TECHNOLOGY CO.,LTD.",China,Chengdu,"B-7-5,NO.8 OF TONGCHENG RD.,QINGYANG INDUSTRIAL DISTRICT, CHENGDU,Chengdu,Sichuan,China",http://www.pedaro.com.cn/,"5G SPD,1U SPD, AC SPDPV DC SPD, PV SPD,LED SPD. LED Outdoor SPD"
"Chengdu Uni-Link Energy Development Co., Ltd.",China,Chengdu,"A-301 Public Secretary Platform 2nd Floor Block A No.5 Gaopeng Avenue  Gaoxin District Chengdu,Chengdu,Sichuan,China",www.cdynt.com,"Protable Power Station, RV Power Station, Camping Battery, Camping Power Station"
"Chengdun Minjiang Precision Cutting Tool Co.,Ltd",China,Chengdu,"Industrial City Economic Development Zone  , China,Chengdu,Sichuan,China",http://www.cntbaw.com,Light
CHINA  ELECTRONICS  SHENZHEN COMPANY,China,Shenzhen,"37/F.,BLOCK A,ELECTRONICS SCIENCE & TECHNOLOGY BLDG.,2070 SHENNANZHONGLU SHENZHEN,GUANGDONG,CHINA,Shenzhen,Guangdong,China",http://www.cesz.com,"IP44 led downlight, 5 inch downlight, dimmable led donwnlightGU10 spot lighting fitting,mr16 fitting, mr16 fitting, Aluminum downlight framebalcony ceiling light, design ceiling lights, flush mount led ceiling light housing"
CHINA  NATIONAL  ELECTRIC  IMPORT & EXPORT CORP.,China,City,"NO 8 BUIDING,GUAN DONG DIAN NAN JIE CHAO YANG MEN WAI BEIJING CHINA,City,Beijing,China",http://www.cuec.com.cn,"Solar outdoor lampMCCB, MOULDED CASE CIRCUIT  BREAKER, SWITCHcharger for electric vehicle, charger for electric E-sweeper, charger for cleaning machine, charger for E-motorcycle, charger for E-tricycle, charger for E-bike, charger for scooter, charger for motorcycle, Charger for electric tools, charger for toys"
CHINA BRIGHT INTERNATIONAL TRADE BEIJING LTD.,China,City,"ROOM A-6488, BUILDING 3, NO. 20, YONGAN ROAD, SHILONG ECONOMIC DEVELOPMENT ZONE, MENTOUGOU DISTRICT, BEIJING,City,Beijing,China",,table lamp
"CHINA CHENGDU INTERNATIONAL TECHNO-ECONOMIC COOPERATION  CO.,LTD.",China,Chengdu,"NO.49, HUAISHU STREET, CHENGDU,  CHINA,Chengdu,Sichuan,China",http://www.ccdietc.com,coaxial cableEXHAUST FANcable
"CHINA ELECTRONICS ZHUHAI CO.,LTD",China,Zhuhai,"6/F CEC BUILDING NO.1082 JIUZHOU AVENUE CENTRAL JIDA ZHUHAI GUANGDONG CHINA,Zhuhai,Guangdong,China",http://www.cec-zh.com,"Down light, Spot light, Grille Light, LED, COB, RecessedDown light, Spot light, Grille Light, LED, COB, RecessedDown light, Spot light, Grille Light, LED, COB, Recessed"
China Forestry Materials Corporation Limited,China,City,"THE INTERNATIONAL CENTER OF TIMES PROPERTY MANAGEMENT OFFICE BLDG.A. 26 FLOR. NO.101,SHAO YAO JU BELI, BEIJING, P.R.CHINA,City,Beijing,China",,solar flood light
"China Jiangsu International Economic and Technical Cooperation Group, Ltd",China,Nanjing,"5, WEST BEIJING RD., NANJING, CHINA,Gulou District,Nanjing,Jiangsu,China",http://www.zjgj.com,tracking lightSolar cellhighbay light
"CHINA MACHINERY ENGINEERING WUXI  CO.,LTD.",China,Wuxi,"15-16fi,A10buildin,777jianzhu West Road,Wuxi,Jiangsu,China,Wuxi,Jiangsu,China",,"Mono Cell, 166 Mono Cell，6BBceiling light, down light, spot lamp, recessed, MRSpot light, GU10/MR16 Surface mounted Spot light, GU10 Surface mounted Spot light, MR16 Surface mounted Spot light, Surface mounted Spot light"
"CHINA NAT.BUIL.MAT.& EQUIP. I/E CORP,.",China,City,"17-21TH FLOOR,NO.4 BUILDING,ZHUYU BUSINESS CENTER,SHOUTI SOUTH ROAD,HAIDIAN DISTRICT,BEIJING,CHINA,City,Beijing,China",http://www.icnbm.com,"solar system for homeSolar light, solar street light, PV light, Solar powered light, Garden light"
CHINA NATIONAL  MACHINERY IMP.&EXP.CORP.,China,City,"WEST WING OF SICHUAN MANSION, 1 FUCHENGMENWAI AVENUE, BEIJING,City,Beijing,China",http://cmc.genertce.com.cn,"Professional audio,  stage speaker, bocina,  led bluetooth speaker, party speaker, Jambal Speaker, Rohs Speaker, Active speaker, PA speaker, portable speaker box LED, LED LAMP, WALL LIGHT, LED WALL LIGHT, SPOT LIGHT, GARDEN LIGHT, CEILING LIGHT, FLOODLIGHTLED, LIGHT, OUTDOOR, WALL, ZHEJIANG, NINGBO, YUYAO"
CHINA NATIONAL CONSUMER ELECTRICS & ELECTRONICS IMP.& EXP.CORP.,China,City,"NO.910 9TH SECTION, JINSONG CHAOYANG DISTRICT, BEIJING, CHINA,Chaoyang District,City,Beijing,China",http://www.chinalight.com.cn/,"LED flood light, LED work light, work light, flodd lightLED flood light, LED work light, work light, flodd lightLED flood light, LED work light"
China National Instruments Import&Export Group Corporation,China,City,"INSTRIMPEX BUILDING,NO.6,XIZHIMENWAI STREET,XICHENG DISTRICT,BEIJING,City,Beijing,China",http://www.instrimpex.com.cn,Push button switchRecessed ceililng light
China National Materials Industry Import & Export Corporation,China,City,"13F, YUHUI BUILDING (A),NO.73,FUCHENG ROAD,HAIDIAN DISTRICT,BEIJING,CHINA,City,Beijing,China",http://www.sinoma.cc," wall switch, led switch, button switch, switch wall switch, led switch, button switch, switch, new switch, new design, switch socket, switchsocket, glass switch wall switch, led switch, button switch, switch, new switch, new design, glass switch, rocker switch, switch socket"
CHINA PRECISION MACHINERY I/E HARBIN CORP.,China,Harbin,"6/F.,SONGLEI BLDG.,160 ZHONGSHAN RD.,HARBIN CHINA,Harbin,Heilongjiang,China",,"LED ceiling lightLed signs, Led Signage, Dynamic signs, Animated signs, Slim light box,3D signage, indoor outdoor signage, Acrylic signage,led sign board, logo sign board, led signage design, neon led signs, glow sign board, flex sign, signage, logo signs, light boxdiy led letters.Free-match Led Signs,magnetic led sign"
"CHINA ZHEJIANG INTERNATIONAL ECONOMIC & TECHNICAL COOPERATION CO.,LTD.",China,,"NO.3 MACHENG RD., HANGZHOU, CHINA,China",http://www.zjetc.com,"decoration light, christmas light, outdoor fairy lightsdecoration light, christmas light, outdoor fairy lightsdecoration light, christmas light, outdoor fairy lights"
"CHINA--BASE  NINGBO  FOREIGN  TRADE  CO.,LTD.",China,Ningbo,"NO.666 TIANTONG SOUTH ROAD,NINGBO,CHINA,Ningbo,Zhejiang,China",https://www.seedslinks.com,
china-east resources import and export co.,China,City,"14BLDH, CUI WEI ZHONG LI, HAIDIAN DISTRICT, BEIJING, CHINA,City,Beijing,China",http://www.cerieco.com,lampholder lampholder bulb
"Chinaland Solar Energy Co., Ltd",China,Hefei,"NO.7, EAST LINQUAN ROAD, FEIDONG ECOMONIC DEVELOPMENT ZONE,HEFEI CITY, ANHUI PROVINCE, CHINA,Hefei,Anhui,China",http://www.sunergyworks.com,"Half-Cell-Technology; , MBB half cell;, high efficiency solar module;, solar panel;, half cell perc mono, 166mm solar cellsHalf-Cell-Technology; , MBB half cell;, high efficiency solar module;, solar panel;, half cell perc mono, 158.75mm solar cell panelHalf-Cell-Technology; , MBB half cell;, high efficiency solar module;, solar panel;, half cell perc mono, 166mm solar cells"
"CHINALIGHT SUNSHINE CO.,LTD.",China,City,"NO.910,9TH SECTION,JINSONG CHAOYANG DISTRICT,BEIJING,CHINA,Chaoyang District,City,Beijing,China",http://www.chinalight.com.cn/,bulbbulbbulb
"CHINAPACK NINGBO IMPORT & EXPORT CO.,LTD.",China,Ningbo,"4TH FLOOR,NO.138 WEST ZHON GSHANROAD,NINGBO.,Ningbo,Zhejiang,China",http://WWW.CHINAPACK-NB.COM,"extractor fan , ventilation fan , ventilating fan , exhaust fanhead lamp 5w whited led+2 red led with usb chargerMulti Extension socket with Power Switch"
"CHOICE INTERNATIONAL TRADING CO.,LTD",China,Guangzhou,"RM A2101-A2104 NO.11 YIYING STREET XINGANG ROAD. MID. GUANGZHOU, CHINA,Guangzhou,Guangdong,China",http://www.choices.com.cn,"Rechargeable camping lantern, portable lighting, FM radio, lantern, emergency, rechargeable, hanger, USB output, outdoor light, usb chargingRechargeable camping lantern, portable lighting, lantern, emergency, rechargeable, hanger, USB input, outdoor light，infinite dimmingRechargeable emergency lamp, portable lighting, outdoor light, light, lamp, LED light, emergency, rechargeable, AC/DC, lighting"
"CHONGQING ARTS & CRAFTS I/E CO.,LTD",China,City,"ROOM 904 BLOCK 3 OCEAN PLAZA NO.15 PARADISE WALK JIANGBEI DISTRICT CHONGQING CHINA,City,Chongqing,China",,"SCALE, ELECTRIC SCALE, KITCHEN SCALEWaterproof Switch Socket Box"
"Chongqing Blue Jay Technology Co.,Ltd",China,City,"A-18-2, No. 88 Jianxin East Road, Jiangbei District, Chongqing,Jiangbei District,City,Chongqing,China",www.cqbluejay.com,Peltier dehumidifierAnalog Power MeterKLY-M96 Analog Max Demand Meter
"CHONGQING HUI FAN TECHNOLOGY CO.,LTD.",China,City,"Dongli International Building D 1313~1316 LongTouSi, New North Zone, Chongqing, China,City,Chongqing,China",http://www.hfteco.com,"Biometric device, computer device, fingerprint scanner, fingerprint sensor, security access control, android fingerprint scanner, Huifan , HFSecurity"
CHONGQING KAILIAN GROUP,China,City,"15/FL,CHONGQING FOREIGN TRADE BUILDING 65# NORTH JIANXIN ROAD JIANGBEI DISTRICT,CHONGQING CHINA,City,Chongqing,China",,"deep cycle battery， VRLA BATTERY, SOLAR BATTERY, UPS BATTERYfront terminal battery， storage batterysolar battery， UPS battery， backup battery， storage battery"
CHONGQING TIMEWIN ENTERPRISE LTD.,China,City,"RM1808 18/FBEAUTY VIEW TOWER NO.88 HONGSHIRO YUBEI DISTRICT CHONGQING CHINA,City,Chongqing,China",http://www.timewinauto.com,illustrationNail clipsCeramic tile cross
"ChongQing YiYu Import and Export Co.,td",China,City,"Shop 5, Building B, Huadu Commercial Building, Yuxiang Road, longtan town, Youyang County, Chongqing,City,Chongqing,China",,"uninterruptible power supply , pure sine wave, line-interactiveuninterruptible power supply , pure sine wave, line-interactiveuninterruptible power supply , pure sine wave, line-interactive"
"CHUNBIN CABLE GROUP CO.,LTD",China,Luoyang,"Industrical Park of Huilongwan,Guxian town, Yanshi City,Henan ,China,Luoyang,Henan,China",http://www.chunbin.com,"AAC, AAAC, ACSRAerial Bundled Cable, ABC, Aerial Insulated CableH05VV-F , Flexible Wire, Multicore Cable"
"CIXI CITY RIXING ELECTRONICS CO., LTD",China,Ningbo,"JIETANG INDUSTRIAL PARK, TIANYUAN, ZHOUXIANG TOWN, CIXI, ZHEJIANG,Ningbo,Zhejiang,China",http://www.qjsolar.com,"375w solar panel, high efficiency, ECONESS, new energymono solar panel, high efficiencypoly solar panel"
"CIXI DONGGONG ELECTRIC APPLIANCE CO.,LTD.",China,Ningbo,"YANPU,GUANHAIWEI,CIXI,ZHEJIANG CHINA,Ningbo,Zhejiang,China",,拖线板-30延长线-3ADAPTOR
"CIXI ZHONGFA LAMPS CO.,LTD.",China,Ningbo,"NO.188,2ND  XINGCI ROAD, ECONOMIC DEVELOPMENT ZONE, CIXI CITY ,NINGBO,CHINA,Ningbo,Zhejiang,China",http://www.zflamp.com,LED Wall LightLED Floodlight LED WALL LIGHT
"CLION ELECTRIC CO.,LTD",China,Wenzhou,"NO.319,WEI 18 RD.,YUEQING ECONOMIC DEVELOPMENT ZONE,YUEQING CITY,ZHEJIANG PROVINCE,325600 CHINA,Wenzhou,Zhejiang,China",http://www.electrical-relay.com/,"Micro SwitchThree Phase Solid State Relay, SSRNNC67E, T90"
"CN Cable Group Co.,Ltd.",China,Zhengzhou,"NO.80 DIANCHANG ROAD , HIGH-TECH. INDUSTRY ZONE, ZHENGZHOU , P.R. CHINA,Zhengzhou,Henan,China",http://www.cncablegroup.com,"BARE CONDUCTOR, ACSR, AAC, AAAC, ACAR, BCC, GUY WIRE, STAY WIRE, OVERHEAD CONDUCTOR, CCS CONDUCTORBARE CONDUCTOR, ACSR, AAC, AAAC, ACAR, BCC, GUY WIRE, STAY WIRE, OVERHEAD CONDUCTORSPECIAL CABLE, Alarm Cable, HEATHING CABLE, INSTRUMENT CABLE, CATHODICA PROTECTION CABLE, MINING CABLE, CRANE CABLE, VFD CABLE, HEATING CABLE"
CNBM International Corporation,China,City,"FLOOR 17TH,NO.4 BUILDING, ZHUYU INTERNATIONAL COMMERCIAL CENTERNO.9 SHOUTI SOUTH ROAD, HAIDIAN DISTRICT, BEIJING,City,Beijing,China",https://www.icnbm.com/https://www.okorder.com,"solar system for homeSolar light, solar street light, PV light, Solar powered light, Garden light"
"CNCCC Sichuan Co., Limited",China,Chengdu,"698,6F,TOWER 1,NO 1388,TIANFU AVENUE,HIGH-TECH DISTRICT CHENGDU,Chengdu,Sichuan,China",http://www.monterey-sc.com,"wall switch socket goldan，electrical light wall switch classical，light switch,3 gang 1 waycomputer socket,wall socket glass，wall socket light，rj45 wall socket cat 6，TV Wall SocketModern Electrical Wall Switch，Simple Wall Switch，Wall Switch Wenzhou"
"CNLIGHT Co.,LTD",China,Foshan,"A ZONE, SHISHAN TECHNOLOGY INDUSTRY ZONE, NANHAI DISTRICT, FOSHAN CITY, GUANGDONG,Foshan,Guangdong,China",http://www.cnlight.com,LED BULBLED LAMPLED LAMP
"COMPLANT ZHEJIANG IMPORT-EXPORT CO.,LTD",China,Hangzhou,"3FLOOR,A DEPARTMENT,COMPUTER MANSION,NO.70 GENSHAN WEST ROAD,HANGZHOU.CHINA,Hangzhou,Zhejiang,China",http://,"solar street lightsolar street lightsolar light, solar street light"
"Cononlux Technology Co.,Limited",China,Shenzhen,"Block B.Liyuan Industrial Park,Shiyan Town.Baoan District.Shenzhen.China,Shenzhen,Guangdong,China",http://www.cononlux.com,table light
"CSI Solar Co., Ltd.",China,Suzhou,"199 LUSHAN ROAD, SUZHOU NEW DISTRICT, JIANGSU, CHINA, 215129,Suzhou,Jiangsu,China",https://www.csisolar.com/,"Solar Panel, Solar Module"
"CULTHBERT CO.,LTD.",China,Changhzou,"3F, 2BLD, NO.1-5 CHUANGXIN ROAD, NEW AREA, CHANGZHOU, JIANGSU, CHINA,Changhzou,Jiangsu,China",http://WWW.CZKAIBO.COM,Cabinet Light LED DOWN LIGHT SPOT LIGHTled bulb
"DALIAN EVERSHINE INTERNATIONAL CO.,LTD.",China,Dalian,"69 QIYI STREET DALIAN CHINA,Dalian,Liaoning,China",http://chinaevershine.com,Rechargeable Spot light1200Lumens Aluminum FlashlightRechargeable camping lantern
"Dalian Jingbo International Trade Co.,Ltd.",China,Dalian,"ROOM A 2102, FUHONG MANSION, CHANGXING STR.NO.137,SHAHEKOU DIST.,DALIAN,Dalian,Liaoning,China",http://www.dlquartz.com,"quartz, Spiral tubeQUARTZIndustrial and mining lamp"
Dalian Kaixing International trade Company,China,Dalian,"NO.61 RENMIN ROAD DALIAN,Dalian,Liaoning,China",http://www.dlchem.com,Energy saving light
"Dalian Kingo lighting Co., Ltd",China,Dalian,"NO.38,XIANGLUJIAO STREET,XIGANG DISTRICT,DALIAN,CHINA,Dalian,Liaoning,China",www.chinajingu.com.cn,LED ANIMAL DECORATION LIGHTLED ANIMAL MODELLING LAMPLED PLANT DECORATION LIGHT
"DALIAN LUMING LIGHTING CO.,LTD.",China,Dalian,"ROOM 2111,NEWWORLD MANSION NO.43 RENMIN ROAD ,ZHONGSHAN DISTRICT ,DALIAN,CHINA,Dalian,Liaoning,China",http://www.cnoriental.cn,"lamp, table lamp, tiffany lamplamp, table lamp, tiffany lamplamp, table lamp, tiffany lamp"
Dalian Powtran Technology CO. Ltd.,China,Dalian,"No.11, renxian street,, qixian ling, high-tech District, Dalian, China (116023),Dalian,Liaoning,China",http://www.powtran.com,"frequency inverter; low voltage inverter; ac motor invertert; 220V single phase inverterPR5200+  Soft starter PR5200+ 011G3 380v 11kw , soft starterhot sell"
"DALIAN YAMEI HANDICRAFT CO.,LTD.",China,Dalian,"NANGOU VILLAGE YINGCHENGZI TOWN GANJINGZI DISTRICT DALIAN P.R.CHINA,Dalian,Liaoning,China",http://www.dl-yamei.com,lamplamplamp
"DALIAN YELLYEAR IOT TECHNOLOGY CO.,LTD",China,Dalian,"ROOM 1807, SHANGDING BUILDING, NO.4 SHANGHAI ROAD, ZHONGSHAN DISTRICT, DALIAN CITY,Dalian,Liaoning,China",,LED makeup mirrorLED makeup mirrorLED makeup mirror
"Dalian zhongtian international freight forwarding co.,ltd.",China,Dalian,"NO.34-8 ANMIN STREET,ZHONGSHAN DISTRICT, DALIAN  LIAONING,Dalian,Liaoning,China",http://www.dlzt.com.cn,LAMPLAMPLAMP
"DanYang FeiPeng Electrical Appliance Co., Ltd",China,Zhenjiang,"FEIDA INDUSTRIAL ESTATE HOUXIANG TOWN, DANYANG CITY, JIANGSU PROVINCE, CHINA,Zhenjiang,Jiangsu,China",http://cn-fpdq.com,"extension cords, ac power cord, power cord, extension cable, power cableheating element , stainless steel heating element, water tank heating elementimmersion heater, water heater, electric water heater, instant water heater, electric heater "
"DANYANG HUADONG ILLUMINATION LAMP CO., LTD.",China,Zhenjiang,"NO.2 LAMP CITY STREET, JIEPAI TOWN, DANYANG, JIANGSU, CHINA.,Zhenjiang,Jiangsu,China",http://www.hmostar.com,"LED Garden light 60W 80W 120W LED MODULE, 40W LED MODULE, LED MODULE STREET LIGHTLED MODULE, 40W LED MODULE, LED MODULE STREET LIGHT"
"DEEM Electronic&Electric Material Co.,LTD",China,Dalian,"Building 21,No.77 Gangxing street Development zone ,Dalian city ,Liaoning province,Dalian,Liaoning,China",www.china-deem.com,Heat shrinknon slip tubeNylon braid sleeveDual wall heat shrink tube
"DFUN (ZHUHAI) CO.,LTD",China,Zhuhai,"No. 1, Keji 4th Road, Innovation Coast, Tangjia High-tech Zone, Zhuhai City, Guangdong Province,Zhuhai,Guangdong,China",,Battery Monitoring SystemBattery Monitoring SystemBattery Monitoring
DLLK  COMPANY,China,Zhuhai,"ROOM.505A,JINMONG LANE NO.33,XIANGZHOU DISTRICT ,ZHUHAI,GUANGDONG,CHINA,Zhuhai,Guangdong,China",,"Rechargeable  TorchRechargeable  Torch16“ Rechargeable stand fan, WITH usb"
"Dongguan City TianHua Co., Ltd.",China,Dongguan,"NO.3, ROAD 2, JINQIANLIN INDUSTRIAL ZONE, JITIGANG VILLAGE, HUANGJIANG TOWN, DONGGUAN CITY, GUANGDONG PROVINCE, CHINA 523757,Dongguan,Guangdong,China",http://www.tianhualighting.com,table lamptable lampfloor lamp
"Dongguan Dagin Electrical Co.,Ltd",China,Dongguan,"8th Building,District 4, Zhonghanqiao Industrial park,Wangniudun Town,Dongguan City, Guangdong Province,P.R.China,Dongguan,Guangdong,China",http://www.daginelectrical.com/,Electrical device
"DONGGUAN DONGHING e-COMMERCE CO., LTD.",China,Dongguan,"ROOM 101,UNIT 1,NO.1,TONGLI ROAD,  DONGCHENG, DONGGUAN, GUANGDONG,CHINA.,Dongguan,Guangdong,China",,"portable sterilizer lamp, sterilizer , sterilizer lamp, home using sterilizer lamp, mask sterilization, phone sterilizer, room sterilizerdecoration light, led decoration light, outdoor decoration, indoor decoration, holiday decoration light, rgb pixel light, led decoration lightdecoration light, rgb decoration light, outdoor decoration light, curtain light, rgb pixel light, holiday decoration light, christmas decoration light, led light"
"dongguan k.l.t & casine electronic technology co.,ltd",China,Dongguan,"NO.37, HEHE ROAD, XIANGXI INDUSTRIAL PARK, LIAOBU TOWN,DONGGUAN,Dongguan City,Dongguan,Guangdong,China",http://www.casine.com.cn,"Night Light, casine, KLT, LED NIGHT light, LED night lampDesk lamp, LED desk lamp, LED lamp, lamp, LED light, desk light, KLT, CASINE, folding lampdesk lamp, led desk lamp,table lamp, desk light, USB rechargeable desk light, desk light with usb rechargeable"
"DONGGUAN LEZARD ELECTRICAL CO.,LTD",China,Dongguan,"XIANG SHAN INDUSTRIAL ZONE,XIANG SHAN MIDDLE ROAD,NO:38 C BLOCK,DALANG TOWN,DONGGUAN CITY,GUANGDONG PROVINCE,Dongguan,Guangdong,China",http://www.lezard.com.tr,"switch, socket, lezard, schuko, German, Frenchswitch, socket, lezard, schuko, German, Frenchswitch, socket, lezard, French socket, schuko socket"
"Dongguan liushi electronics co.,Ltd",China,Dongguan,"liushi lndustrial park,no.13 Huangcun Gongye Road ,Humen,Dongguan,Guangdong,China,Dongguan,Guangdong,China",www.dgliushi.com,"Stacking, energy storage, connectors"
"DONGGUAN MINGYING IMPORT AND EXPORT CO.,LTD.",China,Dongguan,"E ROOM,5/F,JINMA BLDG,NO.120 GUANTAI ROAD,GUANCHENG STREET,DONGGUAN,Dongguan,Guangdong,China",,"portable power station, solar generator, power supply for campingportable power station, solar generator, power supply for campingportable power station, solar generator, power supply for camping"
"DONGGUAN RUIYUAN IMP/EXP TRADING CO.,LTD",China,Dongguan,"18/F,DONGGUAN SILK BUSINESS MANSION, NO.15,GUANTAI ROAD,NANCHENG DISTRICT, DONGGUAN CITY,Dongguan,Guangdong,China",,lamplamplamp
"Dongguan Shengqi Lighting Technology Co,.Ltd",China,Dongguan,"HENGGUANG BUILDING,QISHI TOWN,DONGGUAN CITY,Dongguan,Guangdong,China",http://www.shengqilight.com,"Portable，1100 lumens of strong light, compact and powerful, originalPortable, original, flashlight, strong lightPortable, original, high brightness, flashlight"
"DONGGUAN SUNWORTH SOLAR ENERGY CO.,LTD.",China,Dongguan,"NO.1,3RD FLOOR ,BUILDING A,CHUANGFU INDUSTRIAL PARK,FIRST INDUSTRIAL ZONE,LIUCHONGWEI COMMUNITY ,WANJIANG DISTRICT,DONGGUAN CITY,GUANGDONG PROVINCE,P.R.CHINA,Dongguan,Guangdong,China",http://www.sunworthsolar.com,"solar panel, solar energy panel, pv moudlesolar panel, solar energy panel, pv moudleOff Grid Solar System, Solar Energy System, Complete Solar System For Houses"
"DONGGUANG MINXING CABLES CO.,LTD",China,Dongguan,"HONGYING INDUSTRIAL PARK, LONGPING HIGHWAY,FENGGANG TOWN, DONGGUAN CITY, GUANGDONG PROVINCE,CHINA,Dongguan,Guangdong,China",http://www.chinamxc.com,NISPTSPT-1RVV
"donghai yifeng lamps co., ltd",China,Lianyungang,"NO.9,JINGCHEN RD,EAST DEVELOPMENT ZONE,DONGHAI COUNTY,Lianyungang,Jiangsu,China",http://www.dhyfdj.com,vintage led filament lights110-240V Light Chainvintage led filament lights
Donghai Yongchang lighting appliance Co. ltd,China,Lianyungang,"NO. 22, NIUFANG ROAD, NIUSHAN TOWN, DONGHAI COUNTY, LIANYUNGANG CITY,Lianyungang,Jiangsu,China",,"LED bulbs, Light Source Starry Sky Copper Wire Light, Decorative Lighting, Dining Light, LED String Light, Led String Light, sky star bulb, starry bulbs, starry light, filament lamp light, filament bulb, special lightVyongchang, Polaris"
DOORTEC TECHNOLOGY PTE. LTD,China,,"ROOM 398, NO.1 BUILDING, GUANGHUA ROAD, TONGXIANG ECONOMIC DEVELOPMENT ZONE, TONGXIANG, JIAXING, ZHEJIANG,China",www.doortec.com.cn,SENSOR DOOR   AUTOMATIC DOOR GLASS DOOR SYSTEMAUTOMATIC DOOR   SENSOR DOOR  SWING DOOR OPERATOR
"DPPUL IMP.&EXP. CO., LTD. ZHUHAI",China,Zhuhai,"ROOM215A,2ND FLOOR,BLOCK1 NO.341 EAST YANHE ROAD ZHUHAI,Zhuhai,Guangdong,China",http://www.dppul.co.uk,"IP65 Emergency light, Emergency lightIP65 emergency ceiling light, High brightness emergency ceiling light, Human body induction emergency ceiling light, Emergency lightLED Fire Evacuation Emergency Light, IP65 rechargeable emergency light, Embedded emergency waterproof lamp, Emergency Light"
"DUVAL-MESSIEN (Nanning) High-tech For Lightning Protection Co., Ltd.",China,Nanning,"3 FLOOR, HOBO BUILDING, 8, KE YUAN DONG 5 RD.,Nanning,Guangxi,China",http://www.duval-messien.com.cn/,"Earthing Rod, Copper Coated Earth RodDown Conductor, Copper WireAir Rod Base, Air Rod Ridge Saddles"
"East Group Co., LTD",China,Dongguan,"NO.6 NORTHERN INDUSTRY ROAD , SONGSHANLAKE SCI.& TECH.INDUSTRY PARK, DONGGUAN CITY, GUANGDONG PROVIN,Dongguan,Guangdong,China",http://www.eastups.com,"High frequency on-line double conversion technologyHigh frequency on-line double conversion tecDSP (Digital signal processors) control technologyhnology,Optional parallel function, battery temperature compensation, SNMP card, USB, RS485 card, dry contacts, EMD, and SMS alarms"
"EBRIGHT(FOSHAN) LIGHTING CO.,LTD",China,,"No.2-3 Shunhe Bei Road, Wusha, Daliang,  Shunde, Foshan,Guangdong, China,China","http://www.febright,com",floor lampfloor lamp
Electric Powertek Company Ltd.,China,,"Room 1102, Building 1, West District, Zhongnan Square, Nankai District, Tianjin,Tianjin,China",www.electricpowertek.com、www.groundingsystem.com,"Rod fastening fixture with hot galvanized iron parts, cable with hoop, pull wire hoopHigh voltage arrester   compound zinc oxide arrester   arrester series of electric toolsGlass insulator, disk-type suspension insulator, anti-fouling toughened glass insulator"
ENWA SUPPLY & MANUFACTURING LTD.,China,Chengdu,"RM 916, VANKE V-PARK,NO.10 SEC.1 NORTH 2ND RING RD.,CHENGDU, CHINA,Chengdu,Sichuan,China",,"Ultrasonic Cleaner, 0.5LUltrasonic Cleaner, 2.0LTable Lamp"
"ERTCKE BANNER YIJIHASN CASHMERE PRODUCTS CO.,LTD",China,Ordos,"INNER MONGOLIA ORDOS THE CITY THIS FLAG ULAM URIAH BENEVOLENCE IS WEST JENN-AIR TOWN STREET PROCURATORATE SOUTH 200 METERS,Ordos,Inner Mongolia,China",,Flashlight
"Esavior(Guangzhou)Green Energy Co.,Ltd",China,Guangzhou,"Building F, 7th floor, Room 702, No. 22 Tengda East Road, Shilou Town, Panyu District, Guangzhou City.,Guangzhou,Guangdong,China",,Solar Light/Solar Street Light/Solar Lamp/Solar Led lightSolar Light/Solar Street Light/Solar Lamp/Solar Led lightSolar Light/Solar Garden Light/Solar Lamp/Solar Led light
"FAR EAST LIGHTING CO.,LTD.",China,Ningbo,"LONGSHAN CIXI NINGBO,Cixi City,Ningbo,Zhejiang,China",http://www.fareastlamp.com,FL7560NFL7440CF7236T-LS
Flextech company,China,Wuhan,"10TH FLOOR,BLDG B4,FUTURE CITY,999 GAOXIN ROAD,EAST LAKE HIGH TECHNOLOGY DEV. ZONE,WUHAN,HUBEI,CHINA,Jiangxia District,Wuhan,Hubei,China",http://meigeinc.com,"60w portable solar panel, RV Solar panel, rv solar charger, camping solar panel, outdoor solar panelSolar Battery Charger, Solar Panel, Small Solar Panel, Solar Charger, Portable Solar Charger, Flexible Solar Charger, Flexible Solar Panel"
"FOSHAN CITY TOP DEAL IMPORT AND EXPORT CO.,LTD",China,Foshan,"ROOM 1004, BUILDING A, UNIT 1, PHASE 6,GUICHENG TIAN'AN DIGITAL PLAZA, NANHAI, FOSHAN,GD,CHINA,Foshan,Guangdong,China",http://www.fs-topdeal.com,"Power Stripmagnetic Flood light，magnetic，Flood light，10w, 20w, 30w,220V Grille light"
FoShan Decolite Lighting Factory,China,,"No.18th,DashaTou,Yinhe,Pingnan,Guicheng,Nanhai Dist.,Foshan City,Guangdong,China.,China",,table lamp table lampWALL LAMP
"FOSHAN ECCO LIGHTING  CO., LTD.",China,Foshan,"NO. 70, EAST DEVELOPMENT ZONE,DONGLIAN SHICHEN VILLAGE , DANZAO TOWN, NANHAI DISTRICT, FOSHAN CITY.,Foshan,Guangdong,China",http://www.eccosmart.com,USB rechargeable lightAC undercabinet lightEU socket USB undercabinet
FOSHAN ELECTRICAL AND LIGHTING CO .LTD,China,Foshan,"64 NORTH FENJIANG ROAD, CHANCHENG DISTRICT, FOSHAN, GUANGDONG,Chancheng District,Foshan,Guangdong,China",http://www.chinafsl.com/en,"downlight3CCT, A60, BULBT8, TUBE"
"FOSHAN EMINENT INDUSTRY DEVELOPMENT CO.,LTD.",China,Foshan,"NO.129-1 FEN JIANG ZHONG ROAD, FOSHAN, GUANGDONG, CHINA,Foshan,Guangdong,China",http://www.fstextiles.cn,MIRROR  LAMPWALL LAMPMIRROR LAMP
FOSHAN EVERBRIGHT IMPORT AND EXPORT COMPANY LIMITED,China,Foshan,"ROOM 701,BLOCK 2,HONGHUI DUSHI CHANYE XINCHENG,,Foshan,Guangdong,China",,"Solar flare system flood light, solar flood light, solar out door flood light, waterproof flood light, outdoot flood light, remote control flood light, remote flood light"
"FOSHAN FLC LIGHTING CO.,LTD",China,Foshan,"No.15 Xiang'an South Road,Jun'an Town,Shunde,Foshan,Guangdong,China,Foshan,Guangdong,China",http://www.fsflclighting.com,LED DOWN LIGHTLED FLOOD LIGHTLED FLOOD LIGHT
"FOSHAN GAOMING META  IMP. AND EXP. CO., LTD",China,Foshan,"NO.47,49,SHANGCHENG STREET,HECHENG,GAOMING DISTRICT,FOSHAN,GUANGDONG,CHINA,Foshan,Guangdong,China",,Led ceiling light  with sensorLed ceiling lightLed Mushroom Table Lamp
FOSHAN GUANGSHOU IMPORT AND EXPORT CO LTD,China,Foshan,"ROOM 303  INVESTMENT CENTER BUILDING, AREA A  GUANGFO AUTOMOBILE CITY,EXIT SHUIKOU ROAD,EAST SIDE OF FOSHAN 1ST RING ROAD, HECUN,LISHUI,NANHAI,FOSHAN,GUANGDONG CHINA,Foshan,Guangdong,China",,"Track Light, Plastic Track Light, Commercial LightPlastic T shape bulb, High power plastic bulb, T Bulb 38w, LED T bulb 48W E27 base, LED Plastic bulb manufacturer in China, Plastic+aluminum T shape bulb, China LED T Bulb suppliers, China supplier Aluminum Plastic T shape, energy saving LED bulbDie-casting T bulb, Led T shape bulb, LED T bulb, high power bulb, Die-casting T bulb manufacturer, high power bulb 50w, high power bulb 70w, high power bulb 100w, big power bulb, 20w 30w 40w 50w 60w 75w 100w 125w 150w T bulb"
FOSHAN JUNJING INDUSTRIAL CO.LTD.,China,Foshan,"4/F JINQIAO BUILDING HUAYUAN ROAD EAST FOSHAN,Foshan,Guangdong,China",http://www.fsjunjing.com,"led rechargeable torch, 3w led torchled rechargeable torch, led torch , 3W led torchled head light , led torch , lithium rechargeable headlight, 3w headlight"
"Foshan Kaicheng Lighting Co., Ltd.",China,Foshan,"No.16 Xingye Xi Road, Shishan Town, Nanhai District, Foshan City, Guangdong Province,Foshan,Guangdong,China",www.kcdlight.com,"LED floodlight, solar floodlight, outdoor light, outdoor solar light, high current lightKCD waterproof light, IP65 stadium light, outdoor light, 100w led solar floodlightLED street lights, mains street lights, outdoor street lights, road lights, street lights, outdoor lights, municipal road lights"
"FOSHAN LANTERN LIGHTING TECHNOLOGY CO., LTD",China,Foshan,"No. 15, Zhi An Middle Road, Jun An Town, Shun de District, Foshan, Guangdong, China,Shunde District,Foshan,Guangdong,China",www.bulbm.com,Linear 9w LED bulb9W economic LED bulbCOLOR BULB
"FOSHAN NANHAI REAL WIN IMPORT & EXPORT CO., LTD.",China,Foshan,"TOWER A BLUD6,TIANAN NANHAI CYBER PARK,JIANPING RD GUICHEN NANHAI DISTRICT FOSHAN CITY,Foshan,Guangdong,China",http://www.fsrealwin.com/,"LED track light, 30W LED track lightLED track light, 30W LED track lightLED DOWM LIGHT"
"Foshan OUYAD Electronic Co., Ltd",China,Foshan,"BUILDING 2, NO. 13, RONGXING  INDUSTRIAL BASE,  DA FENG TIAN ROAD, ,LUOCUN TOWN,,Foshan,Guangdong,China",http://www.ouyad.com,HY5532 VMIII 5500W off grid hybrid inverterHYG1033 10kw On grid off grid solar inverter3kva 3000W PWM off grid hybrid solar inverter
"FOSHAN RUNJING TRADING CO.,LTD",China,Foshan,"ROOM NO.205, NO.60 NANZHUANG DADAO XI, NANZHUANG TOWN,CHANCHENG DISTRICT, FOSHAN CITY,CHINA.,Foshan,Guangdong,China",,LED REFLECTORLED HEAD LIGHTTORCH
"Foshan Shipu Technology Lighting Co., Ltd.",China,Foshan,"No.19 Xiangan South Road, Changxing Industrial Area, Junan Town, Shunde District, Foshan City, Guangdong Province, China,Foshan,Guangdong,China",,OFFICE PANEL LIGHT ceiling light; panel light; downlightLED COB DOWN LIGHT
FOSHAN SHUNDE DISTRICT KINGON LIGHTING CORPORATION,China,,"No.16, West Changxing Avenue, Junan Town, Shunde District, Foshan City, Guangdong Province,China",www.kingon-led.com,moisture proof lampoutdoor lampsolar lamp
"FOSHAN SHUNDE KAITAO IMPORT AND EXPORT CO.,LTD",China,Foshan,"2F,NO.18 NORTH RONGGUI DADAO,DONGFENG,RONGGUI,SHUNDE,FOSHAN,Shunde District,Foshan,Guangdong,China",,exhaust fans/ventilation fansPvc Pipe AccessoriesBATHROOM FAN、SQUARE BATHROOM FAN
"FOSHAN SHUNDE OUYASHI ILLUMINATION ELECTRIC APPARATUS CO., LTD.",China,Foshan,"XIHUA NEW INDUSTRIAL ESTATE LELIU TOWN SHUNDE, FOSHAN, GUANGDONG,CHINA,Foshan,Guangdong,China",http://www.ouyashi.com,LED chargable lamp 8WDESK LAMPLED TABLE LAMP
"FOSHAN SKYPLANET IMPORT & EXPORT CO., LTD.",China,Foshan,"NO. 1 FENJIANG  XI RD., FOSHAN CITY,Foshan,Guangdong,China",http://www.fs-sp.com,Voltage stabilizer
"Foshan suoer electronic industry CO.,Ltd.",China,Foshan,"NO.2 VILLAGE, YANFENG ROAD, SHISHAN TOWN, NANHAI DISTRICT, FOSHAN CITY,Nanhai District,Foshan,Guangdong,China",http://www.chinasuoer.com,"5000W solar on grid invertersolar hybrid inverter , hybrid solar inverter, pure sine wave inverter5000W solar on grid inverter"
"FOSHAN TEXTILES IMPORT& EXPORT CO.,LTD.",China,Foshan,"NO.129-1 FEN JIANG ZHONG ROAD, FOSHAN, GUANGDONG, CHINA,Foshan,Guangdong,China",http://www.fstextiles.cn,"LED Fan Ceiling Light, LED Ceiling Light, Fan Light, Tuya Wifi Wiz App, LED Smart Ceiling Light, Phone Smart Control, LED Fan Light , Smart Fan Light，Ceiling Fan with Lights，LED CEILING FAN, fan light, led, led ceiling, LED Fan Ceiling , Tuya Wifi Wiz App, LED Smart Ceiling Light, Phone Smart Control, LED Fan LightLED CEILING FAN，LED Fan Ceiling , LED Ceiling Light, Fan Light, Tuya Wifi Wiz App, LED Smart Ceiling Light, Phone Smart"
"FOSHAN VPON ELECTRIC CO., LTD.",China,Foshan,"JIANGYI INDUSTRIAL ZONE,LELIU TOWN,SHUNDE DISTRICT,FOSHAN CITY,Foshan,Guangdong,China",http://www.vpon.net,LED Bulb with PIR Sensor E27 3W(White)switch人体感应灯泡12W(白光)
"FOSHAN XINFU IMP. & EXP. CO., LTD",China,Foshan,"N0.11 YIAOHUAYUAN LANE ROAD NO.30 DESHENG,RONGGUI, SHUNDE, GD,Foshan,Guangdong,China",http://XINFU.COM,table lamp
Fresh Source International Inc.,China,Zhongshan,"No.2, 2nd Road of Guanglong,Jinlong Industrial Park,West Area, Zhongshan,  Guangdong Province,Zhongshan,Guangdong,China",www.e-vang.com,"SOLAR FLOOD LIGHT, SOLAR MOTION ACTIVATED LIGHT, SOLAR WALL LIGHT"
Fuji Terminal China Inc.,China,Suzhou,"BUILDING D,11 QINGDAO EAST RD,TAICANG JIANGSU 215400 CHINA,Suzhou,Jiangsu,China",http://www.fujiterminal.com,Crimp TerminalsCrimp TerminalsCrimp Terminals
"Fujian DYNAVOLT Power Technology Co.,Ltd Chenghai Branch Company",China,Shantou,"15th Floor, Mengshi Square Office Building, Chenghai District, Shantou City,Shantou,Guangdong,China",http://www.dynavolt.net.cn/,battery，motorcycle
"FUJIAN ITAWA INDUSTRY CO., LTD.",China,Fuzhou,"2116-2119,BLOCK 2,THAIHOT PLAZA,NO.6,BANZHONG RD.,XINDIAN,JIN'AN DISTRICT,FUZHOU,CHINA,Fuzhou,Fujian,China",http://www.intaiwa.com,"LED ROAD LIGHT  LED路灯 LD029LED  Bulb, GU10Sensor Spot Light, Spot Light, Spot Light"
"FUJIAN METALS & MINERALS IMP. & EXP. CO., LTD.",China,Fuzhou,"9-10/F., TIANAO MANSION, 169 HUDONG ROAD, FUZHOU, CHINA,Fuzhou,Fujian,China",http://www.mimfj.com,"solar street light battery, solar street light waterproof, solar led street light outdoor, solar street light "
"FUJIAN MINHUA POWER SOURCE CO.,LTD",China,Quanzhou,"LONGQIAO INDUSTRIAL ZONE,ECONOMY DEVELOPMENT ZONE,AN'XI COUNTY,FUJIAN,CHINA,Quanzhou,Fujian,China",,"EV battery2V battery, solar battery, telecom & power stationGEL battery, Solar battery"
"FUJIAN SHIMATE IMPORT AND EXPORT TRADE CO., LTD",China,,"No. 17 Row 3, Xinglong Road, Qingyang Street, Jinjiang city, Quanzhou City, Fujian,Fujian,China",,EMT ConduitStrut ChannelEMT Conduit
"FUJIAN YDJ Light CO.,LTD",China,Fuzhou,"ZHENFENG INDUSTRIAL ZONE, XIANGQIAN TOWN, MINHOU COUNTY, FUZHOU, FUJIAN CHINA,Fuzhou,Fujian,China",http://www.ydj-light.com/,"New EU energy label compliant High efficiency and environment friendly Complete range for general lighting cover lamps and luminaires Voltage：220-240V CCT：3000K | 4000K | 6500K CRI：80 Lamp Base: E27 | B22A bulbRechargeable Emergency Light,camping light,partable light,rechargable lightt"
"FUXIN JIEKEDA ELECTRONIC CO.,LTD",China,Fuxin,"NO.67 ROAD C ECNOMIC ZONE,Fuxin,Liaoning,China",,capacitorcapacitorcapacitor
"FUZHOU BESTOWN INDUSTRY CO., LTD.",China,Fuzhou,"ROOM 1008,10/F HUAMIN BUILDING, NO.165 HUDONG ROAD,FUZHOU,FUJIAN,P.R.CHINA,Fuzhou,Fujian,China",,"Wood cover plate switch, DIY switch, assembly switch16A socket, Italy socket, DIY socketdoor bell switch, wall switch, assembly switch"
"FUZHOU COLSHINE ELECTRIC CO., LTD.",China,Fuzhou,"G5-516, SUNSHINE PARADISE, PANYU ROAD, JINSHAN, FUZHOU, CHINA,Fuzhou,Fujian,China",www.colshine.com,"led street light,road light, street lightsmetal lamp holder,E27E14 lamp base，Porcelain lamp holder, ceramic lamp holder, waterproof lamp holder, sauna lamp"
"FUZHOU EURO IMPORT AND EXPORT CO., LTD",China,Fuzhou,"FLAT C2D, 28F.,WORLD TRADE PLAZA, NO.71 WUSI ROAD, FUZHOU, CHINA,Fuzhou,Fujian,China",http://http:www. fuzhoueuro.com,EXTENSION SOCKETPLUGSWITCH
"FUZHOU FAITHREACH IMPORT AND EXPORT CO.,LTD",China,Fuzhou,"UNIT 2309,23RD FLOOR,ZHONGFU PLAZA, FUZHOU,  FUJIAN, CHINA,Fuzhou,Fujian,China",http://www.mostlamp.com; http://www.cnfjfr.com,"Porcelain lamp holder, porcelain lampholder, e27 porcelain lampholder, e27 porcelain lamp holder, ceramic lampholder, ceramic lamp holder, e27 ceramic lamp holder, e27 ceramic lampholder, 519, F519, e27 holder, e27 porcelain holder, e27 ceramic holder, e27 lamp holder, e27 lampholder, e27 lamp socketporcelain insulator,spool insulator, insulator,low voltage insulator,53-2,AR53-2,53-ARHalogen lampholder, halogen lamp holder, GU10,GZ10, MR16,G5.3"
"Fuzhou Guonzhou Electronic Co.,Ltd",China,Fuzhou,"No. 170, Jianxin Town, Cangshan District, Fuzhou City, Fujian Province, China.,Fuzhou,Fujian,China",http://www.fg-electronic.com,"FGE, LEDLED, Portable AC outlet night light, CDS senor night lightLED, push light, cabinet light"
"FUZHOU HEROSTART CO.,LTD",China,Fuzhou,"1501 FUSHENG BUILDING NO.9 GUTIAN ROAD GULOU DISTRICT FUZHOU,Fuzhou,Fujian,China",,LED STRIP LIGHTLED GARDEN LIGHTNYLON CABLE TIES
"Fuzhou Jinhuida Import & Export Co.,Ltd",China,Fuzhou,"ROOM904,11/F,WU SHAN RONG YU B2#,NO69 WUSHAN WEST ROAD,FUZHOU,CHINA,Fuzhou,Fujian,China",http://www.fzjinhuida.com,"industrial sockets and plugs , plug socketwall switches,wall socket, USB socketelectrical switches , switches"
"FUZHOU JINSHANYU IMPORT&EXPORT CO.,LTD.",China,Fuzhou,"Rm 1106 ,11/F,1-1# R&D Building,Straits Sci.& Tech. R&D Zone of Fuzhou Qinghua Ziguang Sci.& Tech. Park,30 Wulongjiang Ave.South, Shangjie Town, Minhou County,Fuzhou City, Fujian Province,China,Fuzhou,Fujian,China",,"二维码CLOAD CENTERSLED T BULB , LED BULB , LED LIGHT, LED LAMP, T LIGHT , T BULB,  T LAMP"
"FUZHOU KINGLUX IMPORT AND EXPORT CO.,LTD.",China,Fuzhou,"OFFICE 39-2 2ND FLOOR,NO.2 BUILDING,YUAN SHUAI MIAO HOUSING ESTATE,YANG QIAO DONG ROAD,GULOU DISTRICT,FUZHOU,FUJIAN,Fuzhou,Fujian,China",,"LED SOLAR STREET LIGHT,LED SOLAR FLOOD LIGHT,LED PANEL LIGHT,LED DOWN LIGHT,LED STRIP LIGHT"
"FUZHOU LINSHENG IMPORT&EXPORT TRADING CO.,LTD",China,Fuzhou,"R11/L15,BUILDINGA,SOUTHERN SIDE OF R&F CENTRE,SHANGPU RD,NINGHUA ST,TAIJIANG DISTRICT,FUZHOU,FUJIAN,Fuzhou,Fujian,China",http://www.fzlinsheng.com,"extension cord,  socket with switchextension cord,  socket with switchsocket, cable, plug, extention cord"
"FUZHOU POWER ELECTRICAL APPLIANCES CO.,LTD",China,Fuzhou,"Unit 2901-2907, 29/F, Building B2, R&F Centre, Shangpu Road, Taijiang District,  Fuzhou, Fujian, China,Fuzhou,Fujian,China",http://www.cn-lightings.com,"LED Ceiling Fixture, LED TUBEplugplug"
"FUZHOU QSUPER ELECTRICAL MACHINE CO.,LTD.",China,Fuzhou,"NO.282,WUSI ROAD,GULOU,FUZHOU,Fuzhou,Fujian,China",http://qsuperpower.com,"panel solares , china high quality high efficiency , solar cells, solar panel, factory price solar panel, efficient polycrystalline, 60cells poly, 280W poly solar panel, high efficiency solar panel, China best sale solar panel , solar cellssolar kit, solar power panel, kit solar, solares, high efficiency solar panel, efficient monocrystalline, Flexible mono solar panel , 120 mono half cell, mono solar panel, solar energy systemssolar panel, solar panel kit, solar powered, solar energy, mono solar panel, solar cells china, panels solar, solar panel system, 60 cells mono, solar panel 300w"
FUZHOU RUIHONG IMP.& EXP.CORP.,China,Fuzhou,"UNIT 1703,B3#,B AREA,R&F CENTER,SOUTH SIDE SHANGPU ROAD,NINGHUA STREET,TAIJIANG DISTRICT,FUZHOU,FUJIAN,Fuzhou,Fujian,China",,"switch , socket B22 lampholder adaptor lamp holder lamp socket converter led lamp bulb adapter lampholder base adaptorswitch , socket "
"FUZHOU SANDAO IMPORT&EXPORT TRADING CO.,LTD",China,Fuzhou,"R10/L15,BuildingA,SouthernSideofR&FCentre,ShangpuRd,NinghuaSt,TaijiangDistrict,Fuzhou,Fujian,Fuzhou,Fujian,China",,LED Strip lightSolar Street LightUFO
"FUZHOU SEKURO ELECTRICAL APPLIANCE CO., LTD.",China,Fuzhou,"ROOM 510. OFFICE BUILDING, NO.246 HULIN RD., FUZHOU, FUJIAN, CHINA,Fuzhou,Fujian,China",http://www.sekuro-ele.com,"Lamp Holderweather proof box, Electrical Box, die-cast aluminum boxPower wire, line wire, PVC wire, Electric wire, parallel wire"
"FUZHOU SHANYI ELECTRICAL APPLIANCE CO., LTD",China,Fuzhou,"FULONGE INDUSTRIAL ZONE, MEIXI TOWN,MINQING COUNTY,Fuzhou,Fujian,China",http://www.shanyi168.com,"SOCKET, SOCKET WITH CORDJUNCTION BOX, WIRING BOXLAMPHOLDER, LAMPHOLDER WITH CHAIN"
"FUZHOU SINGREE IMP.& EXP.CO.,LTD.",China,Fuzhou,"NO.98,NANPING EAST ROAD , FUZHOU,Fuzhou,Fujian,China",http://www.singree.cn/,LINE POST INSULATOR 57-13PIN  INSULATOR PROCELAIN INSULATORSPIN  INSULATOR
FUZHOU SPRING IMP & EXP CO;LTD,China,Fuzhou,"BUILDING C2, ROOM.1413-1414, WANDA PLAZA,NO.8 AOJIANG ROAD, TAIJIANG DISTRICT, FUZHOU, FUJIAN, CHINA.,Fuzhou,Fujian,China",http://www.fzspring.com/,"abs, SocketPlug, Socket, Nylon, TPEWall, Switch, ABS"
"Fuzhou Wells Import And Export Co., Ltd",China,Fuzhou,"Unit 305, Building 22, Phase II, Huichuang Famous Residence, No. 806, Jinzhou South Road, Jianxin Town, Cangshan District, Fuzhou City,Fuzhou,Fujian,China",http://www.china-wells.com,"Extension Socket，power stripModern Chandelier, Classic Home Decor E27 Gold Round Led Bubble Ball Modern Glass, Pendant LightNew Design Handmade Woven Bamboo Pendant Light, Rattan Hanging Lamps, Natural Chandelier"
"FUZHOU XINHUI IMPORT AND EXPORT CO.,LTD.",China,Fuzhou,"13-14,21ST FLOOR,FULI C AREA C1,SHANGPU GOAD,FUZHOU FUJIAN,Fuzhou,Fujian,China",http://www.xh58.com,"led Ceiling lamppendant lamp, DINING ROON LAMP, pendant lightRetro track light, spot light, ceiling track spot "
"FUZHOU YONGXINGFU IMP AND EXP.CO.,LTD",China,Fuzhou,"1612-B3 BAO LI TIAN YUE,PINGXI ROAD,GULOU DISTRICT,FUZHOU CITY,FUJIAN PROVINCE,CHINA,Fuzhou,Fujian,China",www.yxffz.com,"SOLAR LED STREET LIGHTLED FLOOD LIGHTLED LAMP,LOVE LAMP"
"GACIA ELECTRICAL APPLIANCE CO.,LTD",China,Wenzhou,"NO.1 Nanxijiang Road, Wenzhou Bridge Industrial Park, Beibaixiang Town, Yueqing City,Zhejiang Province,Wenzhou,Zhejiang,China",http://WWW.GACIA.COM.CN,"HIGH CAPACITY, THERMO-MAGNETIC PROTECTION , MCCB, AIR SWITCH1P+N MCB , 6kAMCCB, AIE SWITCH"
"GANSU LOONG LIGHTING SCIENTECH CO,LTD",China,Longnan,"Xihe county, longnan city, gansu province,Longnan,Gansu,China",,"Solar lampDanish wind, flowerpot, rechargable table lamp, portableSolar lamp"
"Gansu Shengjia Business Trade Co., Ltd",China,Lanzhou,"ROOM 601,NO.14 JINHAI GARDEN,DUNHUANG ROAD,QILIHE DISTRICT,LANZHOU,GANSU,Lanzhou,Gansu,China",,LED lightLED lightLED light
"GANSU WODE IMPORT & EXPORT CO., LTD.",China,Lanzhou,"78 HONGXING ROAD LANZHOU CHINA,Lanzhou,Gansu,China",,Table lamp
"Ganzhou Zhongguang Import and Export Trading Co., Ltd.",China,Ganzhou,"West District of Residential Committee,Industrial Park of Xinfeng County,Ganzhou City,Jiangxi Province,Ganzhou,Jiangxi,China",http://www.zhgdled.com/,SOLAR FLOOD LIGHT
"Gaozhou qifan Lighting Technology Co. , Ltd.",China,Maoming,"2nd and 3rd floor, 26 Hexi Road, Baoguang Street, Gaozhou City,Maoming,Guangdong,China",,"七彩，遥控Grow lamp, grow light, LED growing lampLED grow lamp, Grow light,Phytolamp"
GENERTEC INTERNATIONAL CORPORATION,China,City,"BUIIDING NO. 910 JIN SONG 9RD ZONE CHAO YANG DISTRICT, BEIJING,City,Beijing,China",http://www.genertec.com.cn,desk lamp，table lamp，foldable lampRechargeable Cool Mist Travel Humidifier Lamp Air Cute Portable Humidifier for Wholesalecamping night light，camping fan
"Ginlong Technologies Co.,Ltd.",China,Ningbo,"NO. 57 JINTONG ROAD,BINHAI INDUSTRIAL PARK, XIANGSHAN,Ningbo,Zhejiang,China",http://www.solisinverters.com,"RAI-3K-48ES-5GPV Inverter, Solar InverterSolar Inverter, PV Inverter"
"GLAMOR OPTOELECTRONICS TECHNOLOGY CO.,LTD",China,Zhongshan,"NO.3,GUANGFENG INDUSTRIAL PARK ,WEST DISTRICT ,ZHONGSHAN ,GUANGDONG ,CHINA,Zhongshan City,Zhongshan,Guangdong,China",http://www.glamorled.com,"36V Christmas light,, 36V Christmas light string,, 36V fairy light，, 36V light chain, 36V  string light,, 36V festival light, , 36V String light wholesales, , 36V String light commercial, , 36V String light manufacturer,, 36V String light liveHight lumen output , Back light , Slim frame, Driver built in, , PC house, CCT clip, 2 in 1 available, Driver changeable,Christmas light, light chain, string light,, RGB string light, String light commercial, String light manufacturer, 2020 canton fair String light, String light live, String light wholesales, String light live, festival light"
Glory Stand (Qingyuan) Energy Limited,China,Qingyuan,"No.32 Ngai Lik Electronics Industrial Estate, Longtang Town, Qingyuan Experimental Economy Dev. Qingyuan City, Guangdong Province, China.,Qingyuan,Guangdong,China",https://www.msn-battery.com/,"12v lifepo4 battery pack,12ah lifepo4 battery pack, lithium ion battery pack32700 lifepo4 battery cell"
"GMY LIGHTING TECHNOLOGY CO., LTD.",China,Jiangmen,"NO.328 XINXING ROAD, GONGHE TOWN, HESHAN CITY, GUANGDONG, CHINA,Heshan City,Jiangmen,Guangdong,China",http://www.gmylight.com,"222nm far uv light , 222nm disinfection lamp, 222nm uvc light, 222nm ultraviolet light, 222nm excimer lamp fixtureUVC lamp， germicidal table lamp, sterilized lamp, UVC light,  remote control, delay start, , 185nm, 253.7nm, 254nm, Ultraviolet, kill bacteria,, kill germ, kill virus, air purify"
"GRANDGLOW NEW ENERGY TECHNOLOGY CO., LTD.",China,Huangshi,"NO. 278, ZHONGSHAN AVENUE , HUANGJINSHAN NATIONAL HIGH-TECH ECONOMIC DEVELOPMENT ZONE,Huangshi,Hubei,China",http://www.grandglow.net,solar 1-phase on grid inverter
"GREENDAY TECHNOLOGY CO.,LTD.",China,Quanzhou,"NO.24,XINGZHAI INDUSTRY AREA,LUOJIANG,Quanzhou,Fujian,China",,"solar light, outdoor light, gardensolar light, outdoor light, gardenSOLAR LIGHT"
"GUANGDONG  ROULE ELECTRONICS  CO.,LTD。",China,Zhuhai,"NO.12 PINGDONG 3 RD.NANPING INDUSTRY COMMUNITY,ZHUHAI.CHINA,Zhuhai,Guangdong,China",http://www.china-rl.com,"Wifi Video Doorbell, Roule wifi video doorbell  , RL smart video doorbellinfrared doorchime, door bell, bell, PIR sensor, motion sensor, alarm, rl, rouleTUYA , alarm, wifi alarm, smart alarm , rl , roule, sensor, infrared alarm, wifi sensor"
"Guangdong Aokete New Material Technology Share Holding Co., Ltd.",China,Zhongshan,"Zhongshan,Guangdong,China",http://www.gdaktlighting.com,"Solar Landscape Light, Solar Street Light,  Integrated Solar Street LightLED Solar Streetlight, Solar Streetlight, Complete Set Solar LightLED Panel Light , Back lite LED Panel Light , 2 by 2 LED Panel Light , 595*595 LED Panel Light "
"GUANGDONG AOKLY GROUP CO.,LTD",China,,"NORTH OF S347, DONGSHEN VILLAGE, DONGHUA TOWN, YINGDE CITY, GUANGDONG PROVINCE.,Guangdong,China",http://www.aokly-battery.com,VRLA BatteryTraction Battery 6PZB600VRLA Battery
"Guangdong Baijia Baiter Industry Co., Ltd.",China,Zhongshan,"BAIJIA-BAITER INDUSTRIAL BUILDING, RIGHT FLANK, WAIHAI BRIDGE, GUZHEN TOWN, ZHONGSHAN CITY, GUANGDONG PROVINCE, CHINA,Zhongshan,Guangdong,China",www.baijia.cc,"Money Detector, detector, Visual DetectorHeavy Duty Counter, money counterVacuum Bundled Banknote Counter Vacuum Bundled Bill Counter Vacuum Bundled Currency Counter . Vacuum Bundled Money Counter"
"GUANGDONG BLUE SEA&SKY E-COMMERCE CO., LTD.",China,Zhanjiang,"K4015, the 4th Floor, Nanjing Base Science and Innovation Service Center of  Zhanjiang High-tech Zone, No. 70, Renmin Dadao Zhong, Zhanjiang,Zhanjiang,Guangdong,China",,heatingSwimmingHot water
"GUANGDONG COMMERCIAL TRADING IMP.& EXP.CORP.,LTD.",China,Guangzhou,"3/F, 819 LONGJINDONGROAD , GUANGZHOU,CHINA,Guangzhou,Guangdong,China",,"Bedside Table Lamp, Latest Trend Lamps, Design Lamps, Top 10 Table Lamps, Contemporary Lamps, Top 10 Floor Lamps, Ceramic Lamps, Marble Lamps, Modern Lamps, Scandi Style LampsTouch Table LampLED reading lamp"
"Guangdong Cooper Optoelectronics Incorporated Co.,Ltd",China,Jiangmen,"BUILDING 6,ZHICHONG INDUSTRY YARD,JIANGMEN CITY,GUANGDONG PROVINCE,Jiangmen,Guangdong,China",http://www.kuboled.com,"COB STRIPLED NEON FLEX, LED STRIP, LED ROPELIGHT, NEON FLEXLED STRIP, STRIP LIGHT, 2835 STRIP, ROPE LIGHT, 24V STRIP, HIGH BRIGHTNESS STRIP"
"GUANGDONG COSIO LIGHTING CO., LTD.",China,Foshan,"FLOOR 15, UNIT D, FOSHAN NATIONAL TORCH INNOVATION PIONEERING PARK, NO. 13, HUABAO NAN ROAD, CHANCHENG DISTRICT, FOSHAN CITY, GUANGDONG, CHINA.,Foshan,Guangdong,China",http://www.cosiolighting.com,"LED LAMPNegative ions, self-cleaning, air purification, sterilization and disinfectionHotel spotlights, downlight"
"GUANGDONG DACHANG ELECTRICAL CO.,LTD",China,Foshan,"DATONG, XIQIAO TOWN, NANHAI DISTRIC, FOSHAN CITY, GUANGDONG, CHINA,Foshan,Guangdong,China",http://www.dachang.cc,"universal socket, socket, plug, extension power strip, adaptorsocket, socket with USB, extension socket with 2 USBsocket, cable, power strip, extension socket usb, thailand extension socket, saudi arabia power extension socket, extension socket manufacturer, multiple socket extension, extension cord, power extension cord"
"GUANGDONG DINGNENG TECHNOLOGY CO.,LTD.",China,Shantou,"INDUSTRY AREA HUXI CHENDIAN CHAONAN SHANTOU GUANGDONG CHINA,Shantou,Guangdong,China",http://www.y-f.cn,"led headlamp, led miner's lamp, led torchmosquito bat, mosqutio swatter, mosqutio racketDN-Li2095"
"Guangdong DP CO., LTD.",China,Guangzhou,"NO.12,KEYUAN ROAD,PRIVATE SCIENCE PARK,BAIYUN DISTRICT,GUANGZHOU,CHINA.,Guangzhou,Guangdong,China",http://www.dpled.com,"high power emergency light/ portable emergency lig, AC emergency light/DC emergency light, home using emergency light, emergency light with eye-, emergency light with eye protection, 9W DP new design led emergency light, solar panel charging port LED emergency lightDP desk lamp flashlight torch, flashlight with long battery life, rechargeable flashlight rechargeable torch, big flashlight big torch, Rechargeable metal flashlight with Li-ion battery, flashlight with Li-ion battery"
"GUANGDONG FENGMING ELECTRONIC TECH. CO.,LTD.",China,Foshan,"NO.1, LONGLE ROAD, HUANGLONG VILLAGE, BEIJIAO TOWN, SHUNDE DISTRICT, FOSHAN, GUANGDONG, 528311, P.R. CHINA,Foshan,Guangdong,China",http://www.bm-cap.com,"MKP Induction heating capacitorDC-LINK CAPACITOR,  ALUMINUM CAN CBB20"
"GUANGDONG FENGZE ELECTRICAL ENGINEERING MANUFACTURE CO.,LTD",China,Foshan,"JIYUE INDUSTRIAL DISTRICT,LELIU CONTAINER,DESTINATION PORT,LELIU TOWN,SHUNDE DISTRICT,FOSHAN CITY,Foshan,Guangdong,China",http://www.sansheele.com," SANSHE,  switch,  socket , Exhaust Fan, Axial Flow Fan, Wall Fan, ceiling non-tubular ventilating fan , ceiling type ventilation fan, plane ceiling stype ventilation fan, Ceiling tubular ventilating fan wall switch and socket , switch with socket ,  SANSHE,  switch,  socket , 3gang 1way switch, push button electric lamp wall switch , 13A universal socket(multiple socket) and switch, 1 gang satellite socket, 1 Gang British / UK Type TV Satellite Aerial Sockewall switch and socket , switch with socket ,  SANSHE,  switch,  socket , 3gang 1way switch, 2 gang 1 way , led push button wall home light switch , 20A double pole switch with light"
"Guangdong Finance Key Supply Chain Management Co., Ltd",China,Guangzhou,"XINGZHONG ROAD ZHONGSHAN CITY SHIQI DISTRICT NO. 11 ROOM 802 A,Guangzhou,Guangdong,China",,LCD display chargerVertical Axis Micro Wind Turbine DC Small Blade Household DIY Production Physical Power Generation Principle12-54 inches Lights Aquatic Plants Grown  Waterproof Fish Tank RGB LED Light for freshwater
"guangdong futina electrical co., ltd.",China,Foshan,"NO.C06-1 JIYUE INDUSTRIAL ZONE, LELIU PORT, GUANGDA RESIDENTS' COMMITTEE LELIU SUB-DISTRICT OFFICES,,Foshan,Guangdong,China",http://www.futinaswitch.com,"switch, wall switch, socket, wiring device, extension cord,  waterproof, quality, USB, wire socketPop-up type floor mounted socket, desktop socket, Electrical Power Ground socket Outlet BoxMCB, miniature circuit breaker, low voltage electrical switch, residual current circuit breaker, circuit breaker"
"GUANGDONG GOLDEN MONKEY TECHNOLOGY CO.,LTD",China,Meizhou,"NO.4 INDUSTRY PARK,TANGXIA ROAD,SHIZHENG TOWN,PINGYUAN COUNTRY,MEIZHOU, GUANGDONG PROVINCE.,Meizhou,Guangdong,China",www.gdmonkey.com,"MUSIC BULB, CRYSTAL MUSIC BULBStarry Projector Bulb, Ramadan Projector bulb, Starry Rotating Bulb, Ramadan Disco Bulb, Ramadan Party BulbRotating Bulb, 3W Color Bulb, USB Rotating Bulb, Phone Bulb, Music Tempo Bulb, Android Rotating Bulb, iPhone Rotating Bulb, Mini RGB Bulb, Mini Magic Bulb, Mini Led Stage Light"
"GUANGDONG GRANDFULL ELECTRONIC INDUSTRIAL CO., LTD.",China,Jieyang,"TANJIAO VILLAGE,PANDONG TOWN,JIEDONG  DISTRICT,JIEYANG,GUANGDONG,Jiedong District,Jieyang,Guangdong,China",http://www.grandfullcable.com,"speaker cable, 0.5㎡ speaker cable, BC speaker cable, 1.0㎡ speaker cable, 1.5㎡ speaker cabletelephone cable/2 pairs telephone cable, 2 pairs FTP telephone cable, tel phone cablelan cable/network cable/cat7 SFTP lan cabel/BC"
"Guangdong Huasheng Electrical Appliances Co.,Ltd",China,Foshan,"NO.13-1 CHANGBAO ROAD EAST, HUAKOU COMMUNITY NEIGHBORHOOD COMMITTEE RONGGUI TOWN,SHUNDE DISTRICT ,FOSHAN CITY.,Foshan,Guangdong,China",http://www.wasung.com,SJOOWpower cordPOWER CORD
GUANGDONG ILLUMINATE THE FUTURE TECHNOLOGY COMPANY LIMITED,China,Zhongshan,"NO.52,FUZHONG ROAD,BANFU TOWN,ZHONGSHAN CITY,GUANGDONG PROVINCE,CHINA .,Zhongshan,Guangdong,China",http://www.hechenglighting1.com,New surface-mounted down lightanti-glare spot light;DIY spot lightNew track light
GUANGDONG JIAHONG COMPANY,China,Guangzhou,"3/F NO. 503 HUANSHIDONG ROAD, YUEXIU DISTRICT, GUANGZHOU, CHINA,Guangzhou,Guangdong,China",,UPS，Uninterrupted Power Supply，High frequency UPSInverter，Solar inverter，Low frequency inverter，Home use solar inverterUPS / Uninterrupted Power Supply / High frequency UPS
"GUANGDONG JINLI ELECTRICAL APPLIANCE CO.,LTD.",China,Foshan,"NO.36, Yanjiang South Rd, Dawan, Leliu Town, Shunde sictrict, Foshan City, Guangdong, China,Foshan,Guangdong,China",http://www.sokswitch.com,"light switch, wall switch, outdoor switch, electric switch , power switch , switch, push button light switch, Light Switch with LED, 1 way switch, 2 gang wall switchflex outlet, blank plate, blank panel, power outlet, plug outlet, power socket, plug socket, wall socket, wall outlet, 20A flex outletswitch , electric switch, wall switch, light switch, European switch, intermediate switch, European standard, european standard switch"
"GUANGDONG JINYUAN SOLAR ENERGY CO.,LTD.",China,Chaozhou,"NO.5-8-3 FACTORY DISTRICT,BEIZHANXI ROAD,CHAOZHOU ECONOMIC DEVELOPMENT PILOT ZONE,CHAOZHOU CITY,GUANGDONG PROVINCE,CHINA,Chaozhou,Guangdong,China",http://www.jinyuanlighting.com,"Multifunctional Headlight, Headlight, LED Lighting, LED Flashlight, Jinyuan Lighting, Tiger Worldmini solar panel, solar panel cell , china solar panel , portable solar panel , solar panel cost, prices for solar panels outdoor lighting,flashlight"
GUANGDONG JLIP HOLDINGS LIMITED,China,Guangzhou,"ROOM 4206-4207,TOWER B,NO.191,WEST TIYU ROAD,TIANHE DISTRICT,GUANGZHOU,CHINA,Guangzhou,Guangdong,China",,"led panel light, ul dlc panel light, cct dimmable panel light, 2*2 side light panelCOB strip lightLED panel light, CE back lit panel, 6060 panel light, LED back lit panel"
"GUANGDONG JUNON SONGTIAN ELECTRICAL APPLIANCE CO., LTD.",China,Foshan,"LONGSHENG SOUTH ROAD, LELIU, SHUNDE,FOSHAN, GUANGDONG.,Foshan,Guangdong,China",http://www.junonelectrical.com,"Recessed Die-Casting LED Downlight, shunde supplied Recessed LED Downlight, down light,  downlight , SHUNDE, LEDElectrical Extension Socket, movable socket, multi-functional movable socket, multi-functional socket, 3 unit Electrical Extension Socket, 3 Electrical Extension Socket, SHUNDELED Bulbs 8W, shunde made E27 LED bulbs, E27, LED bulb , 8W, SHUNDE"
"GUANGDONG KAIHUA ELECTRIC APPLIANCE CO.,LTD.",China,Foshan,"SHANGCHONG DISTRICT,LELIU,SHUNDE,FOSHAN,GUANGDONG,CHINA,Foshan,Guangdong,China",http://www.sdkaihua.com/?_l=en,"European 2 pins plug, Power cord, DIN VDE 0620 Teil 101Power cord, INMETRO Approval, NBR 14136-2002, IEC60884-1 2006, OCP-004 , Brazilian 3 Pins PlugPower cord, UL Approval, CSA Approval, American IEC 60320 C14"
"Guangdong Kangrong High-tech New Material co.,Ltd",China,Foshan,"INDUSTRY ROAD,LANGSHA,LUOCUN,SHISHAN,NANHAI,FOSHAN,GUANGDONG CHINA.,Foshan,Guangdong,China",http://WWW.KANGRONG.COM,"LED, Ceramic, SPOT LIGHTgu10, lampholder, kangrongE27, Plastic Edison Screw Lampholder, kangrong"
"GUANGDONG KEYUAN ELECTRIC CO., LTD",China,Foshan,"No.15,Guohong Road, Changhongling Industrial Park, Phase 2, Shishan Town,Nanhai District,Foshan City, Guangdong Province,Foshan,Guangdong,China",http://www.keyuanelectric.com,"Three phase transformerPad-mounted Transformer， single phase transformer, three phase transformerSingle Phase oil immersed transformer"
"GUANGDONG LAC SMART LIGHTING CO.,LTD",China,Dongguan,"(B AREA)EASTEM FACTORY,NO.4 OF ZHELIAO INDUSTRIAL ZONE,HUAIDE VILLAGE,HUMEN TOWN,DONGGUAN CITY,Dongguan,Guangdong,China",http://www.lacled.com,"LED ceiling light, LED smart ceiling light, LED tuya ceiling light, tuya smart ceiling light, LED wall light, LED smart control lightLED ceiling light, LED smart ceiling light, LED tuya ceiling light, tuya smart ceiling light, LED wall light, LED smart control lightLED ambience light, LED decoration light, LED portable light"
"Guangdong Lemark Electronics Technology Co., Ltd",China,Zhaoqing,"Building 23, Pingfeng Development District, Guangdong-Guangxi  Cooperation Special Experimental Zone, Fengkai County, Zhaoqing City, Guangdong Province.,Zhaoqing,Guangdong,China",http://www.lemark.com.cn/,"600W Power Station, Outdoor Emergency Power Supply, Detachable Outdoor Power Station, solar generator 110v 220v， LEMARK POWER STATIONPortable Power Station, 2000W LiFePO4 Energy Storage Power, Fast Charge Power Station with Bidirectional inverter，LEMARK New Power Station"
"GUANGDONG LIVI ELECTRICAL CO.,LTD",China,Foshan,"NO.5 NORTH MARKET ROAD,GUANGDA COMMUNITY,LELIU TOWN,SHUNDE AREA,FOSHAN CITY,GUANGDONG.,Foshan,Guangdong,China",http://www.gdlivi.com,"PANEL, LED PANEL, DOWNLIGHT, LED DOWNLIGHTstreet, road, ledBULB, LED BULB, LED T BULB"
"Guangdong Marxon Electronics Co.,LTD",China,Zhaoqing,"No.25, Industrial Street, Zhaoqing High-tech Zone,Zhaoqing,Guangdong,China",,Portable Energy Storage
"GUANGDONG MEZIC TECH CO.,LTD.",China,,"No.1-1 and No.3-1 Industrial Area Fazhan Second Road Xin`an Village,Leliu Town,Shunde District,Foshan City,Guangdong,China,China",www.mezic.cn,InverterInverterEnergy storage system
"Guangdong Multifit Solar Co.,Ltd.",China,Shantou,"Room 301A Third Floor, No.6 Keji West Road,Hi-Tech Zone Shantou City,Guangdong China,Shantou,Guangdong,China",www.multifitsolar.com,Vmaxpower Inverter Off Grid 1kw 2kw 3kw 4kw 5kw 6kw 7kw 8kw 10kwPortable Photovoltaic Energy Storage Power SupplyVmaxpower off grid frequency inverter
GUANGDONG NEW ELECTRONIC INFORMATION IMPORT & EXPORT LTD.,China,Guangzhou,"ROOM 707/709/711/713/715/717 SIYOUXINMA ROAD, CHANGCHENG BUILDING,GUANGZHOU,CHINA,Guangzhou,Guangdong,China",,LED bulb
"GUANGDONG QISHAO FOREIGN TRADE INTEGRATED SERVICE CO.,LTD.",China,Shaoguan,"ROOM 317, 3RD FLOOR, COMPREHENSIVE BUILDING, NO.200 TONGGU ROAD, BAITU TOWN, QUANG DISTRICT, SHAOGUAN CITY, GUANGDONG PORVINCE, CHINA,Shaoguan,Guangdong,China",,"Solar Wall Lights Outdoor, 6 LED Waterproof SolarNon-Contact Test Pen Handheld Volt Tester Digital Testing Tools Receptacle Tester Electrician Tool"
"GUANGDONG QISHUN  SILK IMP. & EXP. CO., LTD.",China,Foshan,"ROOM 2803,BUILDING 18,VANKE GOLDEN RIVERSIDE PLAZA,NO.13 DESHENG ZHONG ROAD,GUANGDONG ,CHINA,Shunde District,Foshan,Guangdong,China",http://www.qishunsilk.com,"Terminal block/ ConnectorLED holder, T8 socket, lamp holder"
GUANGDONG RIFENG ELECTRIC CABLE CO. LTD,China,Zhongshan,"GUANGFENG INDUSTRIAL ZONE  WEST DISTRICT ZHONGSHAN CITY, GUANGDONG PROVINCE  CHINA,Zhongshan City,Zhongshan,Guangdong,China",http://www.rfcable.com.cn/,"cable for microwave oven, extension power cable, h07rn-f cable, h05rn-f cableIEC POWER CORD,, EXTENSION CORD,VDE POWER CORD,, AC POWER CORD, IP 44 3pin power cord H01N2-D, , 0361TQ, 318TRS, WELDING CABLE, SILICONE CABLE"
"GUANGDONG RUIRONG PUMP INDUSTRY CO.,LTD.",China,Jiangmen,"NO.22,NORTH 3RD ROAD,DURUAN TOWN,JIANGMEN CITY,GUANGDONG,Pengjiang District,Jiangmen,Guangdong,China","www.mastrapump.com       
www.ruirong.com","solar water pump system, 4 inch, 1500Wsolar water pump system, 3 inch, 500W, submersible pumpsolar water pump system, 4 inch, 600W, submersible pump"
"GUANGDONG SAKO NEW ENEYGY CO.,LTD.",China,Dongguan,"STREET 2,MEILIANG ROAD INDUSTRIAL AREA,SHUJIU VILLAGE,CHANGPING TOWN,DONGGUAN,GUANGDONG,P.R.CHINA,Dongguan City,Dongguan,Guangdong,China",http://www.sakopower.com,"3.5kw hybrid solar inverter, 3.5KW off grid solar inverter, 3.5kw solar inverter, MPPT solar inverter, Inverter with charger, Pure sine wave solar inverter, Hybrid solar inverter with CE/CB certificates, solar inverter without battery800W hybrid solar inverter, Modified sine wave solar inverter , off grid solar inverter , 12VDC Hybrid solar inverter , Hybrid solar inverter with CE/CB cerificates , wide input voltage range solar inverter, with 40A MPPT solar charge controller inbuilthybrid solar inverter, MPPT, work without battery, With CE CB certificate, puresine wave output"
"GUANGDONG SHUNDE OURED TECHNOLOGY CO.,LTD.",China,Foshan,"Guangye 4th Rd.,Leliu,Shunde,Foshan,Guangdong China,Foshan,Guangdong,China",http://www.66oured.com,"Inverter,3000W,PS-3000KARInverter,1000W,1100W,Oured,PM-1100HAInverter,5000W,Oured,PM-5000QBR"
Guangdong Sihui Instrument Transformer works Co Ltd,China,Zhaoqing,"No.8 Fuhua Road Dongcheng Street Sihui Guangdong,China,Zhaoqing,Guangdong,China",http://www.gdshp.com,SF6 Current transformer for GIS or PASSOil immersed current transformerSF6 single inductive voltage transformer 
"GUANGDONG SILK-TEX GROUP CO.,LTD",China,Guangzhou,"198 DONGFENG ROAD WEST, GUANGZHOU,CHINA,Guangzhou,Guangdong,China",http://www.gdsmtx.com/,Voltage regulator
"GUANGDONG SOLAR NATION POWERTECH ENTERPRISES CO.,LTD",China,Guangzhou,"Room108,No.2 Shuichan Street,Qixinggang,Shiliugang Road,Haizhu District,Guangzhou,Guangdong Province,China,Guangzhou,Guangdong,China",,Solar sensor security lightsolar lamp stringSolar Motion Sensor Wall Light
GUANGDONG SUIMING PHOTOELECTRIC CO LTD,China,Foshan,"NO.2,ZHI AN BEI ROAD,JUNAN?COMMUNITY?RESIDENTS?COMMITTEE,JUNAN?TOWN,SHUNDE,FOSHAN,GUANGDONG,CHINA,Foshan,Guangdong,China",http://www.suiminglighting.com,"Solar Home system, solar power kit , solar home lighting system, solar home power system, solar light, solar energy system, solar off grid system, emergency light, soalr power bank, solar bulb LED high bay light 50 watts Led flood light,50 watts led flood lights,flood led light 50w 100w 150w 200w 300w"
"Guangdong Sunrain Air Source Energy Co., Ltd",China,Foshan,"NO.73 Defu Rd. Xingtan Town, Foshan City, Guangdong Province,P.R. of China,Shunde District,Foshan,Guangdong,China",https://www.sunrainheatpump.com/,Wall Mounted All In One Heat Pumpheating and cooling heat pump；heat pump；domestic heating systemR32 Heat Pump；Air Source Heating And Cooling Heat Pump
"GUANGDONG TEA IMP.& EXP. CO.,LTD",China,Guangzhou,"351 TIAN HE ROAD, GUANGZHOU CHINA,Guangzhou,Guangdong,China",http://www.tea-gd.com,"Heater,heaters,Portable heater, Portable heaters,Diesel heater, Diesel heaters,Gas heater, Gas heaters,Electrical heater, electrical heaters,Hot air generator,hot air generators,Mobile heater, mobile heaters,Heating device, heating devices,PROTEMP , REMINGTON"
"Guangdong Techfine Electronic Co., Ltd",China,Foshan,"6 Flo Road, Luocun, Shishan town, South China Sea, Foshan,Foshan,Guangdong,China",http://www.techfine.net/,Solar Gel BatteryOff grid solar hybrid inverterOffline UPS
"Guangdong Wasung Cable Co.,Ltd",China,,"NO.1-2,XINYUAN ROAD,HUAKOU,RONGGUI,SHUNDE DISTRICT,FOSHAN CITY,GUANGDONG,CHINA,China",http://www.wasungcable.com,"Rubber cable，flexible cableRubber cable, Flexible cableRubber cable,Flexible cable"
"GUANGDONG WEIDASI ELECTRIC APPLIANCE CO.,LTD",China,,"WEST HIGHWAY COMMAND CENTER,LINPAN DOWNTOWN,BLUE CITY DISTIRCT,JIEYANG CITY,GUANGDONG PROVINCE.,Guangdong,China",http://WWW.WEIDASI.COM,"rechargeable head lamp, outdoor hiking head lamp, LED hunting head lamprechargeable led emergency light,portable rechargeable emergency light indoor outdoor,led emergency light with three side lightled rechargeable searchlight, search light handheld, outdoor searchlights for sale, powerful searchlight, multifunction led searchlight"
"Guangdong World Opto-Electronic Co.,Ltd",China,Jiangmen,"1ST FLOOR BUILDING, NO.46 KEYUAN XI ROAD, JIANGHAI DISTRICT, JIANGMEN CITY, GUANGDONG PROVICE, CHINA.,Jiangmen,Guangdong,China",http://www.vmax-lighting.com,"solar led street light, led street lights, led solar street light, solar street light, solar street light price list, street led light, street light solar, street lighting led, solar lights for street, solar street led light solar led street light, led street lights, led solar street light, solar street light, solar street light price list, street led light, all in one solar street light, street light solar, street lamp, street lighting ledsolar led street light, led street lights, led solar street light, solar street light, solar street light price list, street led light, all in one solar street light, street light solar, street lamp"
"GUANGDONG XINGUANGYUAN ELECTRONIC TECHNOLOGY Co.,LTD",China,Dongguan,"B ZONE, QIFENG INDUSTRIAL PARKK, NANKENG, QISHI TOWN, DONGGUANG CITY, GUANGDONG, CHINA,Dongguan,Guangdong,China",http://www.xgylighting.com,"New style low voltage LED path light, Factory price umbrella LED light, Waterproof IP65 garden LED lightSpotlight, RGBW color temperature adjustable led downlight, outdoor die-casted aluminum IP65 waterproof Spot Lightssecurity light, LED security light, outdoor waterproof LED security light"
"GUANGDONG XIONGRUN ELECTRICAL CO.,LTD.",China,,"NO.10,XINHUI ROAD, WUSHA INDUSTRIAL PARK, DALIANG, SHUNDE DISTRICT, FOSHAN CITY, GUANGDONG PROVINCE,CHINA,China",http://www.xiongrun.com,power cordpower cordCCC power cord
"Guangdong Yao Sheng Solar Technology Co.,Ltd",China,Meizhou,"Meiahou Economic Development,Meizhou,Guangdong,China",https://www.gdyssolar.com/,"solar product, solar module, pv module, solar panelPV module, solar module, solar panelsolar panel,solar product,pv module"
"Guangdong Yeephenda CO., Limited",China,Dongguan,"Daxin Road 10, Huaide Community, Humen Town, Dongguan City, Guangdong Province,Dongguan,Guangdong,China",www.yeephenda.com,"* Clip design, install conveniently *Perfect lighting effect without yellowish halo *3pcs AAA battery / adaptor workableLED desk light•Imported PC diffusion shell material, lager light emitting area, better uniformity light offering •Silicone+Metal flexible tube design, better touch feeling and wide angle adjustment •Touch control panel, both brightness and color temperature changable, suitable for virous environments"
Guangdong YiLian Cables Company Ltd.,China,Jieyang,"JINTIAN INDUSTRIAL AREA, MIANHU TOWN, JIEXI COUNTY, JIEYANG, GUANGDONG PROVINCE,Jieyang,Guangdong,China",http://www.yiliancable.com,"HIGH QUALITY 24AWG Cat5/Cat5e/Cat6/ UTP/FTP/SFTP Lan cable, communication cable, network cable, hot sales,indoor and outdoor cable PURE COPPER, WATERPROOF ETHERNET, TWISTE PAIR, CABLE REEL 4PAIR,8CORE,1000FT,SOLIDSouth Africa connector, Power cable, CCA, OFC,1.5Meter Power, Computer power cable, South Africa three-insert power cord, Connecter Wire, Lighting, Electrical Appliance WiringUTP FTP SFTP POWER CABLE，PURE COPPER, WATERPROOF ETHERNET, TWISTE PAIR, CABLE REEL, COPPER CABLE,ETHERNET PORT,,RJ45 LAN, ULTRA THIN ETHERNET, ELECTRICAL CABLE,ETHERNET CABLE, CAT5,CAT5E,CAT6 CAT6E NETWORK CABLE COMMUNICATION CAB, NETWORK CABLE, HIGH SPEED COMPUTER CABLE CCA/CCAM/BC，POE，FLUKE TEST, STANDARD, 4PAIR,8CORE,1000FT,SOLID, STRANDRED, WIFI,ROUTER,HIGH SPEED TRANSMISSION, FACTORY, MANUFACTURER"
"Guangdong Yuguang Imports and Exports Group Co., Ltd.",China,Dongguan,"3/F,YUGUANG FINANCIAL CENTER, NO.5 BUILDING,YUGUANG FOREIGN TRADE INDUSTRIAL PARK, QIANTOU,EAST TOWN, DONGGUAN CITY,Dongguan,Guangdong,China",http://www.yg0769.com,"Hotel table lamp, office table lamp, metal table lamp, minimalist table lampLED táidēng, shuāng tóu táidēng, xuéxí táidēng, bàngōng táidēng 20/5000 LED desk lamp, double-headed desk lamp, study desk lamp, office desk lamp"
"Guangdong Zhicheng Champion Group Co.,Ltd.",China,Dongguan,"Tianxin Industrial Zone, Tangxia Town, Dongguan City, Guangdong P.R.China. 523718,Dongguan,Guangdong,China",http://www.zhicheng-champion.com,"lithium battery，stacked battery system,stacked energy storage,lithium battery pack,home storage battery,energy storage battery,51.2 V battery,lifepo4 batterychampion battery,51.2v battery,100ah battery,lithium battery,All-in-one batterylithium battery，lithium ion battery,lead acid replacement battey,battery with charger,deep cycle battery,25.6v lithium battery"
"GUANGXI  MAOLIDA TRADING AND DEVELOPMENT CO., LTD.",China,Qinzhou,"QINZHOUWAN AVENUE, QINZHOU, GUANGXI,Qinzhou,Guangxi,China", Chungman ,lightBallastlight
"GUANGXI BOBAI XINHE HOME DECORATION CO.,LTD.",China,Yulin,"Shuangpu, Jiulong village, Bobai, 537600, Yulin, Guangxi, China,Bobai County,Yulin,Guangxi,China",http://www.xinhegx.com,"Woven Pendant Lampshade , lampshadeWoven Pendant Lampshade , lampshadelampshade, plastic rattan lampshade, handwoven lamp"
"Guangxi Dikai Science & Technology Co.,Ltd",China,Nanning,"NO.28 ZHENHUA ROAD, KEYUAN AVE.NANNING,GUANGXI,CHINA,Nanning,Guangxi,China",http://www.dikai.com.cn,"DKPV Combiner Box,DC Combination Lock Box,2 4 6 8 12 stringsDK"
"Guangxi Free Trade Test Zone HeXin Supply Chain Management Co., Ltd",China,Qinzhou,"Room 103,1/F, Gulf of Tonkin International Gateway Port Shipping Service Center, No. 1,8Th Street, bonded port area, Qinzhou Port Area, China (Guangxi) pilot free trade zone,Qinzhou,Guangxi,China",,"Table top design,portable and can use in different, Soft touch control and LED displaydesign patent item,  low noise,  good cooling systemPortable design, Soft touch control, high temperature resistanc"
"Guangxi Jiayou Power Technology Co., LTD.",China,Nanning,"NO.3 Dingqiu Road ,Shajing Street, Jiannan District,Nanning ,Guangxi,China,Nanning,Guangxi,China",www.jiayoucable.com,Shielded Control CablesFire Resistant Cablesflat cable
"Guangxi Lifetime Cable Co., Ltd",China,Nanning,"NO.2 Gaoxin 2nd Road,Xixiangtang District, Nanning City, Guangxi Province,China.,Nanning,Guangxi,China",http://www.lifetimecables.com/,"电线 家用电线 BV 布电线 家装电线  Electric wire household electric wire BV cloth electric wire household electric wireoverhead cable,ABC cable,Aerial Bundle CableCat5,Cat5 lan cable, cat5 cable"
"GuangXi QunXing Cable Co.,Ltd",China,Guigang,"NO. 578 SHILING ROAD, GANGBEI DISTRICT GUIGANG GUANGXI CHINA,Guigang,Guangxi,China",http://www.gxqunxing.com.cn,"Medium voltage cable, 8.7/15 kV power cable, 3-core medium and high voltage power cableMedium voltage cable, 8.7/15 kV power cable, 3-core medium and high voltage power cableXLPE CABLE, COPPER CABLE, Cu conductor power cable, 0.6/1kV copper cable"
"Guangxi Zhongwang Technology Co., Ltd.",China,Nanning,"Room 1007. Floor 10, Unit B, Fengling Qilinbao,No. 11,Guiya Road,Qingxiu District, Nanning City,Qingxiu District,Nanning,Guangxi,China",https://www.ecolitron.com,"Rack Mounted Telecom ESS Battery Module ( 5120Wh )Portable Power Stations,Solar Generators,UPS Power Supply,1200W Portable Power Station,Solar Generators 1200W，Solar Charging Battery 1200W，Solar Charging Battery，Power Station 1200W,Power Station,Power Supply,Outdoor Power,Camping PowerWall-mounted 5Kw 10Kw Lithium Battery 24V 48V 50Ah 100Ah 150Ah Solar 200Ah Lifepo4 Battery Pack"
"GUANGZHOU ANHORN INDUSTRIAL DEVELOPMENT CO., LTD.",China,Guangzhou,"4/F DONGJI WEI COMMERCIAL CENTER, ER DONGJIWEI (G105) LUOPU ST, PANYU DISTRICT,ST.,,Guangzhou,Guangdong,China",http://www.anhornlighting.com,"solar powet; DC charging;Portable; LED flood lightHigh brighness，Aluminum housing, good heat dissipation performanceLED SOLAR LIGHT, LED NEW SOLAR LIGHTING PRODUCT, LED NEW SOLAR STREET LIGHT"
"GUANGZHOU BLUESWIFT ELECTRIC CO.,LTD",China,Guangzhou,"ROOM 1505, BUILDING 2, RUIFENG PLAZA, NO.4 RUIFENG 3RD STREET, HUANGPU DISTRICT, GUANGZHOU,CHINA,Guangzhou,Guangdong,China",http://www.bsele.com,"Led Linear,Linear Light,tube LightLed Light Bulb Rgb,Color Changing Rgb Light Bulb,Ir Remote Control Bulbpar30 led light,spot led light,spot light"
"Guangzhou Dong Da Electronic Technology Co., Ltd.",China,Guangzhou,"5TH FLOOR, NO. 138 SHIBEI ROAD, DASHI, PANYU DISTRICT, GUANGZHOU, CHINA,Guangzhou,Guangdong,China",http://www.iwillhave.net,"Mobile phone, charger, fast charging, GaN, British standard, American standard, European standard, Australian standardGaN, charging head, fast charging，British standard, American standard, European standard, Australian standardMobile phone, charger, fast charging, PD, QC3.0, gallium nitride, British standard, American standard, European standard, Australian standard"
"GUANGZHOU ECHOM SCIENCE &TECHNOLOGY CO.,LTD",China,,"HIGH-TECH LNDUSTRIAL DEVELOPMENT ZONE IN GUANGZHOU SCIENCE CITY ROAD ON THE 29TH KEFENG,China",http://echom.com/,"Country wall lamp, Bedroom wall lamp, Farmhouse wall lamp, Farmhouse Chandelier, Aisle wall lamp, Corridor lightportable power stationportable power station"
Guangzhou Felicity Solar Technology Co.ltd,China,Guangzhou,"No.23, donghua xingfu street, renhe town, baiyun district, guangzhou city, guangdong province,CHINA.,Guangzhou,Guangdong,China",http://www.felicitysolar.com,Solar Charge Controller MPPTsolar invertersolar street light
"GUANGZHOU HONGLIWEIYE ELECTRONICS CO., LTD.",China,Guangzhou,"NO.9 HUAXING INDUSTRY AREA XINHUA TOWN HUADU AREA GUANGZHOU, CHINA,Guangzhou,Guangdong,China",http://gzhlwy.com,"THHN12,12AWG"
"Guangzhou Jiguang Lighting Co., Ltd",China,Guangzhou,"4TH FLOOR  BUILDING 2 LONGGANG SOUTH ROAD BAIYUN DISTRICT GUANGZHOU,Guangzhou,Guangdong,China",http://chinaproled.com,"smart wifi led bulb, 9w wifi led bulb, smart led bulb, smart led bulbportable  .Motion Sensor .Emergency:when power off, front panel will light on .Use as portable torch light .Comfortable lighting for home useDusk To Dawn Led Bulb, sensor bulb, 8W bulb, E26 E27 BULB"
"GUANGZHOU KEDUAN ELECTRONIC CO.,LTD",China,Guangzhou,"Room 1206, Building 1, Ruisheng International Building, NO.787 Zengcha Road, Baiyun District, Guangzhou,GuangDong Province,Guangzhou,Guangdong,China",http://www.tgxled.com,"Rechargeable LED Search Lamp, Search Lamp with Battery, Portable Searchlight , Hunting Searchlight, Long Distance SearchlightDragon desk lamp, study table lamp, night lightFolding Study Reading Desk, 2020 New Desk Lamp, Table Lamp, LED Wireless Charging Desk Lamp, Multi-Function Desk Lamp"
"Guangzhou LEDIA Lighting  Co., Ltd.",China,Guangzhou,"ROOM302,NO1,XIANKE 1ST ROAD,HUADONG TOWN,HUADU DISTRICT,GUANGZHOU,CHINA.,Guangzhou,Guangdong,China",http://www.ledialighting.com,"LED linear light, linear lighting, supermarket lighting, industrial lighting, unform lightHigh Voltage Strip, Plug&Play, Super Long Strip, High-volt Strip, AC LED StripShort Cut, Mini Interval, Single LED Cuttable, Single LED Cut, Single LED Cuttable Strip, Mini Interval LED Strip"
"GUANGZHOU NOVA NATION ELECTECH INDUSTRIES CO., LTD.",China,Guangzhou,"NO. 2, LIANG LONG ROAD, HUA SHAN TOWN, HUA DU DISTRICT, GUANGZHOU, GUANGDONG PROVINCE, CHINA,Guangzhou,Guangdong,China",,Solar sensor security lightsolar lamp stringSolar Motion Sensor Wall Light
"Guangzhou poojin  Electronic Co.,Ltd",China,Guangzhou,"NO.138,TAIPINGYANG INDUSTRIAL ZONE, GUANGSHEN ROAD, XINTANG TOWN,    ZENGCHENG CITY, GUANGZHOU CITY,GUANGDONG PROVINCE,CHINA,Guangzhou,Guangdong,China",https://www.belttt.com/enindex.htm,portable power stationinverterinverter
"GUANGZHOU TIGER HEAD BATTERY GROUP CO.,LTD.",China,Guangzhou,"NO.132 NORTH GONGYE ROAD, GUANGZHOU, CHINA,Guangzhou,Guangdong,China",http://WWW.555BF.COM.CN,"Portable Power Station, Power Bank, Power station, 600W, LiFePO4, AC, Lithium Battery"
"GUANGZHOU XIONGSHENG ELECTRONIC CO.,LTD",China,Guangzhou,"Room 106, No. 44 Jiaoxin Road, Jiaoxin Village, Shimen Street, Baiyun District, Guangzhou,Guangzhou,Guangdong,China",,Speakers/audio/soundSpeakers/audio/soundLCD TV
"GuangZhou Zhen Hong Technology co., ltd",China,Guangzhou,"AS518, 5th Floor, Plant A, Gaosha Industry Park, Zhongyi village, Panyu District, Guangzhou, China,Guangzhou,Guangdong,China",https://www.gzzh-lifter.com/,shengjiangdeng
"GUANGZHOU ZIC INTERNATIONAL CO.,LTD",China,Guangzhou,"RM1009-1011 YIAN PLAZA,NO.33 JIANSHELIU RD,YUEXIU DISTRICT GUANGZHOU,Guangzhou,Guangdong,China",https://lonenlighting.en.alibaba.com/?spm=a2700.7756200.0.0.6b6971d2OB4Ro3,"solar power system home, solar energy system, solar system, solar lighting system, solar energy kit, SOLAR KIT, SOLAR SYSTEM HOMERECHARGEABLE LED FLASHLIGHT, LI-ION BATTERY TORCH, LED torch with tail lightrechargeable head lamp, head lamp, lithium battery head lamp, emergency head lamp, camping head lamp, outdoor head lamp"
"GUANGZHOU ZONERICH BUSINESS MACHINE CO.,LTD.",China,Guangzhou,"NORTH GATE,NO.17 YUNJUN RD.,LUOGANG DISTRICT,GUANGZHOU,CHINA,Guangzhou,Guangdong,China",http://www.zonerich.com/,"AI intelligence, remote, meter reading"
"GUANZHOU KAIJIE POWER SUPPLY INDUSTRIAL CO.,LTD.",China,Guangzhou,"No.28, Ruixiang Rd, Xiuquan Street, Huadu , Guangzhou, China,Guangzhou,Guangdong,China",http://www.kagebatteries.com,Lithium Ion BatteryLithium Ion BatteryLithium Ion Battery
"Guilin Huayi Peakmeter Technology Co.,Ltd",China,Guilin,"#3 Building,Huawei Shuangchuang Park, Linsu Road, Guilin 541100,Lingui District,Guilin,Guangxi,China",www.peak-meter.com,"peakmeter, Huayi, PM8908C, electric pen, electric test pen, 2018 electrician special, induction electric pen, multi-function line detection, non-contact, air measurement, electric field induction, safe and reliable, no electric shockpeakmeter, Huayi, PM8909, electric pen, electric test pen, 2018 electrician special, induction electric pen, multi-function line inspection, test electric penPEAKMETER PM6819A Digital wire cable tracker Analog wire-hunting handheld line detector with Continuity test"
"GUILIN YONGGUANG IMPORT AND EXPORT TRADING CO.,LTD",China,Guilin,"NO 1-1-1,18Building,No.3,Qingxiu Road,Diecai District,guilin,Guilin,Guangxi,China",,"Electric Cable,wire，cableCable，wire，electric cableelectric cable，wire，cable"
"GUILIN YUANHAI IMPORT AND EXPORT TRADING CO., LTD.",China,Guilin,"3/F, 25# LINGUI ROAD, GUILIN, GUANGXI, CHINA.,Guilin,Guangxi,China",,"solar panel, solar module, pv panel, pv modulesolar panel, solar module, pv panel, pv moduleSolar panel, solar module, pv panel, pv module"
"Guiyang Zhongan Technology Group Co., Ltd",China,Guiyang,"No.77 Jinma Avenue, Modern Manufacturing Industrial Park, Guanshanhu District, Guiyang City, Guizhou Province,Guiyang,Guizhou,China",,GZATG New Energy Vehicle CablePhotovoltaic Cables，Solar CablesCopper core low smoke halogen-free irradiated cross-linked ceramicized polyolefin insulated double layer fireproof flexible wire
"Guizhou Guoneng Industrial Group Co.,Ltd",China,Guiyang,"9th Floor, Yusai Jinfeng High tech Wealth Center, No. 109 Hubin Road, National High tech Industrial Development Zone, Guiyang City, Guizhou Province,Guiyang,Guizhou,China",http://www.chngnjt.com/,"Solar Street  LightSolar product, Solar BlanketSolar Panel"
"GuiZhou ZOYI Instruments co.,LTD",China,Guiyang,"Mianhuapo, Mainai village, Jinzhu Subdistrict Office, Guiyang Economic Development Zone, Guiyang, Guizhou,Guiyang,Guizhou,China",,Digital multimeterSocket testerDigital multimeter
"GUNGZHOU SAUEY ELECTRICS Co. , Ltd.",China,,"JiangGao town,Baiyun disrict,Guangzhouzhou,China",www.sauey-ledtv.com,PC MONITOR
"GZ Dotels Electric Appliances Co.,Ltd",China,Guangzhou,"No.B23 Huachuang Animation Industrial park,Shiji Town,Panyu District,Guangzhou,China,Guangzhou,Guangdong,China",http://www.axen-heatpump.com,"Monobloc house heating   Heat pumpinverter swimming pool heat pumppool heat pump,swimming pool heat pump,pool pump,air source heat pump,pool heater,pool accessories"
"GZ THEODOOR TECH CO., LTD.",China,Guangzhou,"NO.1-63 PHOENIX 3 HENG ROAD, SINO-SINGAPORE KNOWLEDGE CITY, HUANGPU DISTRICT, GUANGZHOU, CHINA,Guangzhou,Guangdong,China",http://www.theodoor.com.cn,"heat pump, heat pump water heater, heat pump unit, household heat pumpheat pump, heat pump water heater, heat pump unit, household heat pump, split type heat pumpheat pump, heat pump water heater, heat pump unit, household heat pump"
"gz xavier led Co,.Ltd",China,Zunyi,"Buliding J01, Zunyi Free Trade Zone, Xiazi Town, Xinpu New  District, Zunyi City,Guizhou, 563125,China,Honghuagang District,Zunyi,Guizhou,China",www.xavier.com,"Outdoor indoor plastic LED bar table night club illuminated led tableLED luminous flower pot plastic outdoor waterproof round flower pot creative shopping mall  garden landscape squareLighting table, outdoor, cafe, bar table and chairs, music bar, KTV coffee table, card seat LED bar table"
"Haicheng Suprasuny Pump Co., Ltd",China,Anshan,"ZHONGXIAO TOWN, HAICHENG CITY, LIAONING PROVINCE,CHINA,Anshan,Liaoning,China",https://www.ircempump.com,"solar, SUBMERSIBLE ELECTRIC PUMP, DC, 4”solar, SUBMERSIBLE ELECTRIC PUMP, DC, 4”solar, SUBMERSIBLE ELECTRIC PUMP, DC, 4"""
"HAIDI ENERGY TECHNOLOGY CO.,LTD",China,Zaozhuang,"NO.6 YONGFU SOUTH ROAD,XUECHENG ,ZAOZHUANG ,SHANDONG,CHINA,Xuecheng District,Zaozhuang,Shandong,China",http://www.haidienergy.com/,"Prismatic cell HD3.2-50cell, NEW ENERGY , lithium batter, ENERGY STORAGEcell, lithium batter, NEW ENERGY, ENERGY STORAGE"
"HAINAN LUXLIGHT TRADING CO.,LTD.",China,Haikou,"Rm1508, Building 1, Phase 2 of Hainan International Creative Port, No. 8 Minsheng East Road, Haikou, Hainan, China,Haikou,Hainan,China",http://www.luxlight.com.cn,"wall lamp,black wall lamp,round wall lamp,led wall lamp,modern wall lampPendant light,Black pendant light,circle pendant light,E27 pendant lightLED，chandeliers,pendant light, black pendant light,linear pendant light,chandelier, long strip pendant light,modern"
"HAINAN YAOZE TRADING CO.,LID.",China,Haikou,"RM.1705, A2 BUILDING, NO.9 WENHUA RD., HAIKOU,HAINAN, CHINA,Haikou,Hainan,China",,"decorative light,curtain lightdecorative，outdoor，waterproofdecorative，outdoor，waterproof, string light"
"HAINING MINGSHUAI TECHNOLOGY LIGHTING CO.,LTD",China,Jiaxing,"BUILDING 1#, NO 327, CHUANGYE ROAD, CHANGAN TOWN,Jiaxing,Zhejiang,China",http://www.msbulb.com,"Downlight, LED Downlight20W, PD3.0, chargerSmart, Smart bulb"
"Haining Xinguangyuan Lighting Technology Co., Ltd.",China,Jiaxing,"No.5 Fenghuang Road, Dingqiao Town, Haining,Haining City,Jiaxing,Zhejiang,China",http://www.new-lights.com,"LED Glass tube, T8 LED tube, T8 600mm LED tube, T8 2FT LED tubeT8 LED tube, T8 LED PC TUBE, PC tubeE14 220V, 400 lumen, A60 LED"
"HAIYAN ZHONGHAI WIRE & CABLE CO.,LTD.",China,Jiaxing,"SHIQUAN INDUSTRIAL ZONE,TONGYUAN TOWN,HAIYAN COUNTRY,JIAXING CITY,ZHEJIANG PROVINCE,CHINA,Jiaxing,Zhejiang,China",http://www.zhcl.com,ZHDL-001Nylon CableH05VV-F
Hamburg,China,Huai'an,"No 168, Sheng Tai Road, Lianshui Econnomic Development Zone, Huaian city, Jiangsu province, China,Huai'an,Jiangsu,China",www.hamburg.com.tw,"Automotive,Medical,POS,Mobile Device,BLU/LCM,Printer/MFP,Monitor,STB,NB,Card reader,Cable Assembly"
"HANGZHOU ANAKO IMPORT AND EXPORT CO.,LTD.",China,Hangzhou,"LINSHAN VILLAGE PUYANG TOWN XIAOSHAN,Hangzhou,Zhejiang,China",http://www.anako-eletronic.com,"FLEX FITTING, FLEXIBLE CODNUIT, LIQUID TIGHT CONNECTOR, CONDUIT FITTING, FLEX FITTING, TUBING FITTINGCONDUIT BODIES, THREAD TYPE CONDUIT BODIES, WEATHERPROOF BOXES, LC TYPE CONDUIT BODIESCONDUIT FITTING,  TUBING FITTING, EMT STRAP, EMT CONDUIT , ONE HOLE STRAP"
"HANGZHOU BAOSHAN ELECTRONIC CO.,LTD",China,Hangzhou,"NO.,50 TONGYUN RD, LIANGZHU TOWN, YUHANG DISTRICT, HANGZHOU CITY,Hangzhou,Zhejiang,China",http://www.boysungroup.com,"bulb, indoor light, led bulb, A bulbERP 2.0 LED bulbLED"
HANGZHOU DELIXI GROUP CO. LTD.,China,Hangzhou,"NO.8 ZHUANTANG SCIENCE & TECHNOLOGY PARK,XIHU DISTRICT,HANGZHOU,ZHEJIANG,CHINA,Hangzhou,Zhejiang,China",http://www.hz-delixi.com,"Arc Welders, MMA Welding Machine, Welding Machinemppt solar charge controller, solar charge controller MPPT, solar charge controller 60aProgrammable logic Controller, PLC"
"HANGZHOU DELTA ART LIGHT CO., LTD.",China,Hangzhou,"NO.5,THE THIRD ROAD
FUYANG DONGZHOU INDUSTRIAL ESTATE
HANGZHOU ZHEJIANG
P R CHINA,Hangzhou,Zhejiang,China",http://www.deltaartlight.com,"Modern Lamp, Table LampRope Table LampSimply Modern Pendant Light"
HANGZHOU EASTERN ELECTRICAL CO.LTD,China,Hangzhou,"MEICHENG INDUSTRIAL AREA,JIANDE CITY,HANGZHOU,P.R.CHINA,Hangzhou,Zhejiang,China",http://www.zgdfdz.com,896
"HANGZHOU ECOLIGHT INDUSTRIAL CO., LTD",China,Hangzhou,"Rm.1306 Modern Imagic Mansion(w.) No.42Wenhui Rd. Hangzhou,China,Hangzhou,Zhejiang,China",http://www.ecolight.com.cn,water proof led ceiling lampLONG U3+1water proof wall lamp
"HANGZHOU ESCO IMPORT AND EXPORT CO., LTD.",China,Hangzhou,"RM 2101, Building A, NO. 888, Shixinzhong Rd, Xiaoshan, Hangzhou, Zhejiang, China, 311202,Hangzhou,Zhejiang,China",www.askesco.com,"EMT, EMT conduit, GI Conduit,EMT pipe, EMT tube,"
"HANGZHOU EVT ELECTRICAL CO.,LTD.",China,Hangzhou,"HUANTAN,JINHUA TOWN,XIAOSHAN,HANGZHOU,Hangzhou,Zhejiang,China",http://www.evt-electrical.com,"Conduit Bushing, conduit bush, conduit fittings, conduit accessories, rigid conduit fittings, rigid conduit bushing, emt bushing, imc bushing, emt conduit bushing, electrical conduit bushingconduit pipe, steel conduit, conduit, electrical conduit, bs 4568, bs4568, bs4568 conduit, GI Conduit, 20mm steel conduit, 20mm galvanised conduitconduit body, emt conduit body, threaded conduit body, emt lb, conduleta emt, conduit outlet body, lb conduit body, lb conduit, conduleta, rigid conduit body"
"HANGZHOU FANYUMEIER TRADING CO.,LTD",China,Hangzhou,"XIAOSHAN DISTRICT OF HANGZHOU CITY, NO. 161-1,DANGKE ROAD,Hangzhou,Zhejiang,China",http://www.gljsrg.cn,"Iron Metal JointExpllosion-Proof Pipe, Stainless Steelgas pipe"
"HANGZHOU FRANKEVER IMP. & EXP. CO., LTD",China,Hangzhou,"1308, EASTERN TOWER OF IBC,NO. 600 JINSHA AVENUE, HANGZHOU       ECONOMIC AND TECHNOLOGICAL DEVELOPMENT ZONE, HANGZHOU,310018 ZHEJIANG,CHINA,Hangzhou,Zhejiang,China",http://www.frogbro.com,PV Rapid Shutdown Controller Devicesblack solar panelsolar charge controller
"HANGZHOU HAILE ELECTRICAL CO.,LTD",China,Hangzhou,"DAYUAN INDUSTRIAL ZONE, FUYANG, HANGZHOU, CHINA,Hangzhou,Zhejiang,China",http://haile.en.alibaba.com,"Brushed Chrome, UK switch, flex outlet, with neonBrushed Chrome, Switched socket, USB outletBrushed Chrome,  2gang switched socket"
"Hangzhou Hanlight Electrical Co.,Ltd.",China,Hangzhou,"No.355 Dajian Road, Xindeng Industrial Zone, Xindeng Town, Fuyang District, Hangzhou, Zhejiang Province, China,Hangzhou,Zhejiang,China",,Dimmer switch & fan controller10A 6 gang switch45A Switch
"HANGZHOU HONGSHI ELECTRICAL CO.,LTD.",China,Hangzhou,"NO.8 YUYANG ROAD, LUSHAN SUBDISTRICT, FUYANG,Hangzhou,Zhejiang,China",https://www.hongshi-electrical.com,"Brazilian Standard Smart PlugWall Switch, Wall Socket, Switch and SocketUK Plug,  British Standard Plug"
"Hangzhou Huoshi Lighting Co.,Ltd",China,Hangzhou,"ROOM 1202, MAYA BUILDING, NANYUAN STREET, YUHANG DISTRICT, HANGZHOU, CHINA,Hangzhou,Zhejiang,China",http://www.flintlight.com,"LED Filament bulb, LED Edison bulb, LED Globe bulb, G125 bulb, G40 bulb, G30 bulb, G95 bulb, G25 bulb, G80 bulb, G16.5 bulbLED Filament bulb, LED spiral filament, LED Edison bulb, G16.5, G50, E12 base, E14 baseDecorative oversized, LED Edison Bulbs, decorative bulb"
"Hangzhou Jiayuan Industrial Co.,Ltd",China,Hangzhou,"No.520, Hualong village, Linan,Hangzhou,Zhejiang Province ,China,Hangzhou,Zhejiang,China",www.jayuan.cn,"Tinned Welding Wire,Tinned Wire,Tinned Copper Clad Aluminum Wire Tinned CCA WireCopper Clad Aluminum Wire Motor，CCA Wire，Welding WireElectrical Wires CCAM,0.8 Mm Enamelled Copper Wire,Weldind Wire Factory"
"Hangzhou Kaite Electrical Appliance Co.,Ltd",China,Hangzhou,"SANDU INDUSTRIAL ZONE, JIANDE CITY, ZHEJIANG PROVINCE,Hangzhou,Zhejiang,China",,"Socket, power strip, extension cord, power cord with USB, US adaptor with usb, 6AC +2 USB power cordextension socket, extension cord, extension board, power cord, power strip, extension socket with switchstring light, belt light, cafe light, outdoor string lights, outdoor string lights, outdoor belt lights"
"HANGZHOU LIGHT INDUSTRIAL PRODUCTS, ARTS&CRAFTS, TEXTILES I/E CO., LTD.",China,Hangzhou,"NO.6 1 ST XIYUAN ROAD, WEST LAKE TECHNOLOGY & ECONOMIC ZONE, HANGZHOU, CHINA,Hangzhou,Zhejiang,China",http://www.andstar.com,lamplamplamp
"(ZHONGSHAN CHANLLYN ELECTRICAL APPLIANCE CO.,LTD",China,Zhongshan,"NO.13, DONGRUI 3 ROAD,DONGSHENG TOWN,ZHONGSHAN CITY,Zhongshan,Guangdong,China",,"wall lamp,IP44,bathroom pendant lampCeiling,lighting fixtures"
"3S IMPORT&EXPORT SHIJIAZHUANG CO.,LTD",China,Shijiazhuang,"2305,2309-2313 BLOCK A,HAIYUE GUOJI MANSION,NO.66 WEST YUHUA ROAD,SHIJIAZHUANG,Shijiazhuang,Hebei,China",http://www.3sapparel.com；www.solar3s.com,"foldable,Anti-UV,Anti-Aging,Leather.LCD Screen,MPPT,WiFi，solar energy"
"A.H.A INTERNATIONAL CO.,LTD.",China,Hefei,"JINAN MANSION 306 TUN XI  ROAD, HEFEI, ANHUI, CHINA,Hefei,Anhui,China",http://www.ahaint.com,"LED HOLIDAY LIGHT, CHRISTMAS LIGHT, DECORATIVE LIGHTLED plant grow light indoor bulb小夜灯，充电小夜灯"
"ACHEM ADHESIVE PRODUCT (JIANGSU) CO., LTD",China,Nantong,"No.1 Wanchio Road, Libao Town, Haian County, Jiangsu Province, China,Hai'an County,Nantong,Jiangsu,China",http://www.achem.com.tw/en/,"PVC ELECTRICAL TAPE, PVC TAPSIndustrial tapeAutomotive Tape"
"AGC Lighting Co.,Ltd",China,Shenzhen,"BUILDING A, NO.3 PLANT, JIAN AN ROAD, TANG WEI COMMUNITY, FUYONG STREET, BAOAN DISTRICT, SHENZHEN.,Bao'an District,Shenzhen,Guangdong,China",http://www.agcled.com,agcHL-37LED
"AHHUI HUANRUI HEATING MANUFACTURING CO.,LTD",China,Hefei,"LIUZI ROAD,FEIDONG ECONOMIC DEVELOPMENT ZONE,HEFEI CITY,ANHUI PROVINCE,CHINA,Hefei,Anhui,China",http://www.huanruiheatingcable.com/,"concrete curing heating cable , heating cable , floor heating cable heating cable , heat trace cable , heat cable , constant wattage heating trace cable underfloor heating mat, floor heating mat, floor heat mat , in-screed heating mat , under-tile heating mat , snowmelting heating mat, in-slab heating mat"
"Amso Solar Technology Co.,Ltd",China,Huai'an,"GaoLiangjian Pioneer Park,Hongze District,Huaian,Jiangsu Province,Huai'an,Jiangsu,China",https://www.amsosolar.com,"mono solar panel, mono 380w solar panel , mono 390w solar panel, mono solar cell panel  , large size solar panel, black solar panel  , high efficiency solar panel , high efficiency mono solar panel  , 72 cells mono solar panel, 300/350/400/450w mono solar panelhalf cell , mono solar panel , new technology solar panel, half solar cell panel , 182mm solar cell, 10BB solar panel, 144 cell，full black 550w, black solar panelspoly solar panel , poly solar cell solar panel , high efficiency solar panel , good performance solar panel , durable solar panel, 48 cells poly solar panel, poly 200w solar panel, poly 210w solar panel, poly 220w solar panel"
"ANDELI GROUP CO.,LTD.",China,Wenzhou,"NO.208,WEIQI ROAD,YUEQING ECONOMIC DEVELOPMENT ZONE YUEQING ZHEJIANG P.R.CHINA,Wenzhou,Zhejiang,China",http://www.andeligroup.com,"Limit switchmcb, circuit breaker, miniature circuit breaker Metal-clad switchgear"
"ANHUI  MASCOTOP ELECTRONIC CO.,LTD",China,Xuancheng,"NO.168 DONGCHENG AVENUE,HELI INDUSTRIAL ZONE,NINGGUO CITY,ANHUI PROVINCE,CHINA,Xuancheng,Anhui,China",http://www.mascotop.com,"capacitor, fan capacitor, CBB61 capacitor, Mascotop capacitorcapacitor, start capacitor, CD60 capacitor, Mascotop capacitorcapacitor, Microwave owens capacitor, CH85 capacitor, Mascotop capacitor"
"Anhui Anze Electric Co.,Ltd",China,Xuancheng,"38 ZHENNING RD., HELI PARK, ECONOMIC & TECH DEVELOPMENT ZONE,NINGGUO,242300 ANHUI,CHINA,Xuancheng,Anhui,China",http://www.anze.cn,"convector heater ,, bathroom heater , panel heater , electric heater , baseboard heater , electric heatersEcodesign, Lot20, Storage Heater, WiFi, ErP Readyconvector heater ,, bathroom heater , panel heater , electric heater "
ANHUI ANZHI LIGHTING & ELECTRICAL CO. LTD.,China,Hefei,"909-910 BLOCK B, FORTUNE PLAZA,SUIXI ROAD, HEFEI, ANHUI, CHINA,Hefei,Anhui,China",www.anzhilighting.com,"led, LED PANEL LAMP, PANEL LAMP, SURFACE LAMPLED lampshadelamp, LED , LED LAMP, REFLECTOR LAMP"
"Anhui Chenguang Electronic Technology Co.,Ltd",China,Huangshan,"No.127 Hui guang Road, Economic development Zone,Huangshan city,Anhui province,China,Huangshan,Anhui,China",,"air purifiers, air sterizizer, plasma sterilizerair purifiers, air sterizizer, plasma sterilizerair purifiers, air sterizizer, plasma sterilizer"
"Anhui Eagoal New Energy Group Co., Ltd.",China,Hefei,"No.8, Southeast corner of intersection of Huaitong Road and Tonghuaizhong Road,Xinzhan District, Hefei City, Anhui Provi,Hefei,Anhui,China",http://www.eagoal.com.cn,3.2v340ah/lithium/cell
"ANHUI ELECTRONICS INDUSTRIAL CO., LTD.",China,,"7/F.,CHENGUANG BLDG.,399 CHANGJIANG ROAD, HEFEI,ANHUI,CHINA,China",www.aheico.com,"ledfilamentbulb, decorativelight, vintagebulb, ledbulb, LEDglass bulb, LED light , LED globe bulb, LED Straight filament, Frosted coverLED DOWNLIGHT, DOWNLIGHT, CEILING LIGHT, PLASTIC DOWNLIGHT, 30W DOWNLIGHT, ALU DOWNLIGHT, LED ALU DOWNLIGHT, 20W DOWNLIGHTled bulb, led lamp, e27 bulb, e14 bulb, mini globe, globle bulb, e14 bulb, e27 bulb, 5w bulb, mini globe 6w e14 led bulb"
"Anhui Feida Electrical Technology Co., Ltd.",China,Xuancheng,"NO.1, SANJIN ROAD, NINGGUO CITY, ANHUI PROVINCE,Xuancheng,Anhui,China",http://ahfddq.com,"CBB65A-1 type S2, class B metal capacitorCBB65A-1 type 40μF 250V washing machine capacitorCBB65A-1 type washing machine capacitor"
"ANHUI HERRMAN IMPEX CO., LTD",China,Hefei,"16TH FLOOR, BUILDING C, FORTUNE PLAZA, NO.287, SUIXI ROAD, HEFEI, ANHUI, CHINA,Hefei,Anhui,China",http://www.herrman.com,"8A gate sensitive unidirectional thyristorrX0805(T, Thyristor Bidirectional , thyristor scr, SCR and TRIAC  , thyristor"
"ANHUI IMP. & EXP.CO.,LTD.",China,,"669 CHANGJIANG ROAD HEFEI ANHUI CHINA,China",http://www.aniec.com,"LED light, LED STREET LIGHT, SOLAR LIGHT, SOLAR STREET LIGHTLED, LED bulb, FAN BLADE BULBLED Solar Emergency Bulb"
"ANHUI LEADER ELECTRONICS MFG. CO., LTD",China,Anqing,"JIXIAN INDUSTRIAL PARK, DAGUAN ECONOMIC DEVELOPMENT ZONE,ANQING,ANHUI,P.R.CHINA,Anqing,Anhui,China",http://www.leadercable.com.cn,"FR-coaxial cableRG6, RG59cat.6 cable"
ANHUI LEOCH POWER SUPPLY CORP.,China,Huaibei,"ECONOMIC DEVELOPMENT ZONE, SUIXI TOWN, HUAIBEI CITY,ANHUI PROVINCE, CHINA.,Suixi County,Huaibei,Anhui,China",http://www.leoch.com,"VRLA Battery, lead acid battery, UPS battery, 12v 9ah sealed lead acid battery, emergency light battery, toy car batteryVRLA Battery, lead acid battery,  UPS battery, 12v 12ah sealed lead acid battery, emergency light battery, toy car batteryAGM Gel, 12V100AH"
"Anhui LiangLiangElectronic Tech.CO.,LTD.",China,Xuancheng,"ECONOMIC DEVELOPMENT ZONE OF GUANGDE COUNTY,Xuancheng,Anhui,China",http://www.zjlamp.com,"Bulb , LEDflood lightRotatable Spot Light"
"BEIJING FAR BLUE OCEAN IMPORT & EXPORT O.,LTD",China,,"ROOM620,SIX FLOOL,NO.154 NORTH ZHUAN CHANG ,TONGZHOU DISTRICT,BEIJING CHINA,Beijing,China",http://WWW.FBOSAFETY.CN,circuit breaker
Beijing Golden Harvest Science and Technology Development CO Ltd,China,,"Area A, Floor 4, Xinxing Hotel, No. 17, West Third Ring Middle Road, Haidian District, Beijing, China,China",https://jskj.xxg.com.cn,"semi-flexible solar panel，RV, Boat flexible solar panelportable solar panel, foldable solar panel，solar blanketportable solar panel, foldable solar panel，solar blanket for camping"
BEIJING GUOMAOCHENG IMP. & EXP.CORP.,China,City,"NO.90,CHONG WAI STREET,CHONG NEN DISTEICT BEIJING,City,Beijing,China",,超亮绿色灯条Light strip with plug绿色灯条
"BEIJING JOYWIN FASHION TEXTILE CO.,LTD",China,City,"NO.3 YINGQUAN ST.YANGQING DISC,BEIJING,City,Beijing,China",http://snowlotus.com.cn,Light bar
BEIJING LONGY IMPORT & EXPORT CO.LTD.,China,,"ROOM 201,BLOCK C, ZUOJIAZHUANG EAST,CHAOYANG DISTRICT,BEIJING,Beijing,China",,"IP65，, Solar lamp  Solar lamp Solar lamp"
BEIJING METALS&MINERALSCORP.,China,City,"13-204,3AREA FANHCHENGYUAN FANGZHUANG,FENTAIDIST,BEIJING,City,Beijing,China",http://www.bjmmt.com,mmt
BEIJING NAMKWONG JOLLY IMP.&EXP.CORP,China,City,"A527.99CENTURY BUILDING WANGFUJING STREET.BEIJING,City,Beijing,China",,"lamp, table  lamp, ceramictable lamp, ceramic lamp, desk lamp, lighting, ceramic table lamp，home decoration, linen shadetable lamp, ceramic lamp, lighting,desk lamp"
"BEIJING NEW FRIEND INSULATION MATERIAL  CO., LTD",China,,"BEIJING OPTO-MECHATRONICS INDUSTRIAL PARK, CIQU,Beijing,China",http://www.china-insulation.com,cotton rodinsulation partsglass cloth sheet
BEIJING PENGFA TEC &  TRADE CO.,China,City,"ROOM 1329,NO 9/NO 3YUAN NANYAO CUN FENGTAI DISTRICT,BEIJING CHINA,City,Beijing,China",,Cross screwdriverWall switchtable lamp
"BEIJING SHENGLIN RUNJING TECHNOLOGY & TRADE CO.,LTD",China,,"KAOSHANJI PINGGU DISTRICT,BEIJING,CHINA,Beijing,China",http://www.shenglin.net,"led treesGarden light tree, LED, GARDEN, DECORATION, TREE, ARTIFICIAL, LIGHTled trees"
"BEIJING SHOWING TECHNOLOGY CO.,LTD.",China,City,"ROOM 2622, TOWER A, WANDA PLAZA, TONGZHOU DISTRICT, BEIJING,Tongzhou District,City,Beijing,China",,"LED Panel Light, down light, Downlight, Panel Light, ROUND Panel LightLED Panel Light, down light, Downlight, Panel Light, ROUND Panel LightLED Panel Light, down light, Downlight, Panel Light, ROUND Panel Light"
"Beijing trade sincere Import & Export Co., Ltd.",China,City,"NO. 28, CHAOYANG DISTRICT, BEIJING, NO. 401, NO.,Chaoyang District,City,Beijing,China",,"round panel light, hidden, energy saving,  LED, highlight, high quality, wood color, fashion, special, sale wellCOB, panel light, glass panel light, hidden, round, square, energy savingLed diecast UFO bulb"
"BEIJING YONGCHENG XINHONG INTRENATIONAL IMPORT AND EXPORT TRADE CO.,LTD",China,City,"Second Floor of Building D, Block 2, Yanshanggang North Road, Fangshan District, Beijing, 2006,City,Beijing,China",,"junction box , waterproof junction box, outdoor junction box, j box , ip65 junction box , electrical junction box , weatherproof electrical junction box , junction box price , joint box joint box "
"BEITETONGXIN CO.,LTD.INNER MONGOLIA",China,Hohhot,"EXPORT PROCESSING DISTRICT,JINCHUAN DEVELOPMENT DISTRICT,HOHHOT,INNER MONGOLA.,Hohhot,Inner Mongolia,China",,Beverage vending machine
BEJING SINOTECHTON TECHNOLOGY CO.LTD,China,City,"RM11C09,CHANGYIN BUILDING,NO.88 YONGDING RD.HAIDIAN DISTRICT,BEIJING,City,Beijing,China",,Switch socket
"Benxi Guangzheng Tungsten & Molybdenum Co.,LTD",China,Benxi,"WEINING COUNTRY ,GAOTAIZI  TOWN ,MINGSHAN DISTRICT BENXI,Benxi,Liaoning,China",http://www.chinamowti.com,"Molybdenum plate, semiconductorsHigh temperature furnacemolybdenum tube"
"Better Gold Co.,Ltd,Beijing",China,City,"506 Chaoyang District, Beijing, 4th Floor, 13th South Road, Agricultural Exhibition Hall,Chaoyang District,City,Beijing,China",491038065@qq.com,"LED green emergency light , double-sided , surface mountemergency driverLED green emergency light , surface mount, emergency twinspot, two head light"
"BIBO Electronic(ShenZhen)Co.,Ltd",China,Shenzhen,"North and Third Floors of Building 8, Xufa Science and Technology Park, No. 6 Industrial Zone, Heshuikou Community, Matian Street, Guangming New District, Shenzhen,Shenzhen,Guangdong,China",,megaphoneswitching power supply
Blue carbon Technology Inc.,China,Rizhao,"NO.C1, TECHNOLOGY INNOVATION CENTER, HIGH-TECH ZONE,               276800 RIZHAO CITY, SHANDONG PROVINCE, CHINA,Rizhao,Shandong,China",www.bluecarbontech.com,"Solar street light，Solar street light，Solar King lightLiFePO4 Battery Pack,Solar Energy System,Lithium-ion battery pack"
"BOBAI NATIONAL WEAVING CRAFTS FACTORY GUANGXI,CHINA",China,Yulin,"169 XING LONG DONG ROAD,BOBAI COUNTY,GUANGXI,CHINA,Yulin,Guangxi,China",http://www.xminzu.com,rattan bamboo woven table lampshadeHoney color seagrass woven pear shape lampshaderattan with iron frame chandelier lampshade
"BOLD HUNTER IMPORT & EXPORT (TIANJIN) CO.,LTD.",China,City,"RM319,KUNMING BLDG,NO.66 KUNMING ROAD,NANYINGMEN SUB-DISTRICT HEPING DISTRICT,TIANJIN,Heping District,City,Tianjin,China",https://boldhunter.en.alibaba.com/?spm=a2700.shop_cp.88.4,ELECTRIC BLANKETELECTRIC BLANKET
"BONLE(FUJIAN)ELECTRIC MANUFACTURING CO.,LTD",China,Fuzhou,"91# TAIYU RD.,FUWAN PIAN,JINSHAN INDUSTRY,CANGSHAN AREA,Fuzhou,Fujian,China",http://WWW.BONLE.NET,High voltage CUTOUT FUSE 10KV-15KV FCO-933kv standoff bundled composite insulatorBonle Ansi 54-2 Strain Type Porcelain Insulator
"CANGXI QIHONG TRADING CO.,LTD",China,Guangyuan,"ZIYUNINDUSTRIAL,ESTATE LINGJIANG TOWN,CANGXI COUNTY,Guangyuan,Sichuan,China",,"Self adjesive tie mount, Cable tie mount, Cable tie holderVoltage tester, Electrical tester, Line tester, Wire tester, Phase tester, Circuit tester, Electroprobe, Tester pen, Electric test pencil, Screwdriver test penVoltage tester, Electrical tester, Phase tester, Circuit tester, Line tester, Wire tester, Electroprobe, Electric test pencil, Tester pen, Screwdriver test pen"
"Catic Dalian Trade Development Co.,Ltd",China,Dalian,"NO.19 RENMIN ROAD,ZHONGSHAN DISTRICT,DALIAN,Dalian,Liaoning,China",,"007Castlight Floodlight Workshoplamp Lndustrial lighting fixtures  110V,   220V   ,85-265V Waterproof IP65024Solar iintegrated steet lamp holder Solarlamp Walllight Waterpooflight Outdoorlight020Profile aluminum iodine tungstenlamp  splicing section projection  profile aluminum projection"
"CECEP LATTICE TECHNOLOGY CO.,LTD",China,Nanchang,"NO.699 NORTH AIXIHU ROAD,NATIONAL HI-TECH INDUSTRIAL DEVELOPMENT ZONE,NANCHANG,JIANGXI,PR CHINA,Nanchang,Jiangxi,China",http://www.latticelighting.com,LED moduleLED street lightLED street light
"CEHENG FRIENDSHIP IMP. & EXP. TRADING CO., LTD.",China,,"Room 203,2nd floor, E-commerce Public Service Center, Zhiheng County, Qianxinan Prefecture, Guizhou Province,China",,LEDLEDLED
"CF GROUP SZKMS CO.,LTD",China,Shenzhen,"ROOM 101,BUILDING12,RENMIN ROAD 221ST,FUMIN COMMUNITY,FUCHENG STREET,LONGHUA DISTRICT,SHENZHEN,Shenzhen,Guangdong,China",http://www.kmscn.com,"LITHIUM BATTERY HEAD LAMP, DIMMABLE, ADAPTOR, WALKING AT NIGHTLED FLASHLIGHT, SPOT LIGHT, DIFFUSED LIGHT, HIGH BRIGHTNESS, ENVIRONMENTALNight light, With vibration induction control , White light + colorful light, Wireless fast charging function,  Pat night light , Silicone material"
"CHANGAN GROUP CO.,LTD.",China,Wenzhou,"NO.288 WEI 17 ROAD,ECONOMIC DEVELOPMENT ZONE,YUEQING,Wenzhou,Zhejiang,China",http://www.changangroup.com.cn,"Loadbreak Elbow ConnectorACB,  intelligent universal circuit breaker,  intelligent circuit breakerCurrent Transformer"
"Changchun Boxin Photoelectric Co., Ltd.",China,Changchun,"No.155, Zhuoyue E St., High-tech Development District, Changchun, China,Changchun,Jilin,China",www.bxoptic.com,"long focus lense，IR lense，optical lenseanti-reflection thin film, Semi-Reflective thin film, High-Reflective thin film, Filter thin film, Metal thin film, Polarized thin film, Non-Polarized thin film, depends on customers request and the wavelength range covers from DUV to FIRCylindrical Lenses， Aspherical Lenses， Flat Optical Components， Toric Lenses， Spherical Lenses， Prisms， Freeform Products， Large-scale Optics"
"Changfeng Wire & Cable Co., Ltd",China,Cangzhou,"Shaheqiao Industrial Zone, Cangzhou City, Hebei Province,Hejian City,Cangzhou,Hebei,China",http://www.changfenggroup.com,"Medium voltage power cable, CWS Copper wire screen, Armoured cable , AS1429.1, CU/XLPE/CWS/PVC/AWA/PVC/HDPE, LV cable , MV cable, PVC cable , HDPE cable, SWA cable Flexible  Cable, class 5 AL, X-90, X-HF-110, SDI, Power Cable, X-90 cable 0.6 / 1 kV,  termite proof, double brass copper tape , Control Cable , AS/NZS 5000.1, DBT cable, LV power cable, underground cable, project cable, cable manufacture"
"CHANGHONG PLASTICS GROUP IMPERIAL PLASTICS CO.,LTD",China,Wuhu,"4999 EXPRESS WAY ,XINWU INDUSTRIAL DEVELOPMENT ZONE,WUHU,ANHUI.,Wuhu,Anhui,China",http://www.chs.com.cn,"CHS Stainless Steel Cable Ties, code tie,cod ties Cable MarkersCable Glands"
"CHANGSHA EVERMORE ELECTRICAL CO.,LTD",China,Changsha,"RM615,DONGFANGYINZUO ,NO.348,YUANDA RD,Changsha,Hunan,China",http://www.emelectrical.cn/,MALLEABLE BOXMALLEABLE BOXLONG MALE BUSH
CHANGSHA J&W ELECTRONICS CORP.LTD.,China,Changsha,"16B HONGFEI BUILDING BAYI ROAD CHANGSHA,Changsha,Hunan,China",http://www.jwe.cn,REPLACEMENT HYBRID CAR BATTERYREPLACEMENT OF HYBRID CAR BATTERY HYBRID CAR BATTERY   PRUIS 1 GENERATION
"Changshu Zhongcheng Tool Box Co.,Ltd",China,Suzhou,"MEILI INDUSTRY PARK CHANGSHU CITY JIANGSU PROVINCE,Suzhou,Jiangsu,China",http://chinactg.com,tooltool boxtool box
"CHANGXING  POTEK ELECTRONICS & TECHNOLOGY CO., LTD.",China,Huzhou,"NO.1218,Taihu Avenue,Taihu Subdistrict,Changxing city,Huzhou Country,Zhejiang,P.R.C.313199,Huzhou,Zhejiang,China",www.ipotek.en.alibaba.com,smart socketUs outdoor 2-outlet smart plugOffline voice strip light
"Changxing Fanya SMART Lighting Co., Ltd.",China,Huzhou,"NEW INDUSTRAL PARK, HUAXI, CHANGXIN,Huzhou,Zhejiang,China",http://www.fanyalighting.com,LED lighting、LED ceiling lamp、LED wifi lampLED Mirror front lamp、LED Lighitng、LED lampLED LIGHTING、LED LAMP、LED panel lamp
"Changzhou Aladdin Lighting Tech CO.,LTD",China,Changhzou,"NO10,XIANGYUN ROAD  WUJIN ECONOMIC AND DEVELOPEMENT  DISTRICT CHANGZHOU,JIANGSU,Changhzou,Jiangsu,China",http://www.ctlamp.com,SMD LED BULBLED SMD BULB
"CHANGZHOU ALLIED MARINE SUPPLIES CO.,LTD",China,Changhzou,"16/F NO.301 MID TONGJIANG AVE, XINBEI  DISTRICT, CHANGZHOU CITY.,Changhzou,Jiangsu,China",http://www.acelux.com,Marine junction boxfluorescent ceiling lightwork light
"CHANGZHOU BETA UNITED ELECTRONICS CO.,LTD.",China,Changhzou,"Room 2012, 2/F, Building 10, No.2188 Longcheng Dadao,Zhonglou Dist., Changzhou City, Jiangsu Pr., China,Changhzou,Jiangsu,China",www.betaunitedelec.com,SPEAKERSPEAKERSPEAKER
"CHANGZHOU CHIXUN ELECTRONIC CO.,LTD",China,Changhzou,"NO.112 MIAOQIAN NORTH ROAD,WUJIN,CHANGZHOU,JIANGSU,Changhzou,Jiangsu,China",http://www.ac-accessories.com,"video adapter,F connectorF FEMALE TO FEMALE,F CONNECTOR,CONNECTORadapter,connector,RCA plug"
"Changzhou D & Y electrical Lighting Co.,Ltd",China,Changhzou,"No.91 zhouqiao street west,WUJIN DISTRICT,CHANGZHOU,Changhzou,Jiangsu,China",http://www.cnczdy.com,"LED Tube lamp T8LED  tri-proof lightLED IP65 emergency tri-proof light, Emergency light, led emergency light, Outdoor led emergency light"
"CHANGZHOU DAHUA IMP.& EXP.(GROUP) CORP.,LTD.",China,,"HENGYUAN BUILDING,NO.180 GUANHE WEST ROAD,CHANGZHOU,CHINA,China",http://www.dahuagroup.com.cn,SOLAR PANELSOLAR PANELSOLAR PANEL
"CHANGZHOU FENGSHENG OPTOELECTRONICS CO.,LTD",China,Changhzou,"NO.406 HANJIANG ROAD,NEW NORTH DISTRICT,CHANGZHOU,JIANGSU,CHINA,Changhzou,Jiangsu,China",http://www.fsoptronics.com,"PMMA , LGP, Panel, Ligting, OpticalDIFFUER, SHEET, PLATE, LED, PANEL, LIGHTING, PMMACLASSROOM, PANEL, LIGHITNG, LED"
"CHANGZHOU GAORUI ELECTRIC CO.,LTD",China,Changhzou,"NIUTANG TOWN WUJIN DISTRICT CHANGZHOU JIANGSU P.R.CHINA,Changhzou,Jiangsu,China",http://www.lampshouse.com,"LED, Flood Light, LED Flood LightLED, Panel Light, SurfaceLED, Street Light, LED Street Light"
"Changzhou Green Lighting Co.,Ltd",China,Changhzou,"269 Fumin Road, Changzhou, China,Changhzou,Jiangsu,China",www.china-greenlighting.com,"LED ROAD LIGHT; LED STREET LIGHTLED GARDEN LIGHT, GARDEN LIGHTLED FLOOD LIGHT, FLOOD LIGHT,LIGHTING FIXTURE"
"CHANGZHOU HAIGAO INTERNATIONAL TRADE CO.,LTD.",China,,"ROOM411.SEALAND PLAZA.NO.20 GUANGHUASTREET.CHANGZHOU.JIANGSU.CHINA,China", http://www.globalsources.com/haigao.co,"TV SPLITTERF CONNECTORTV ANTENNA, ANTENNA，INDOOR ANTENNA"
"CHANGZHOU J&H IMPORT & EXPORT CO.,LTD",China,Changhzou,"CHANGZHOU J&H IMPORT & EXPORT CO.,LTD,Changhzou,Jiangsu,China",,COB LED STRIP
Changzhou Jia Hui Source Technology Co.LTD,China,Changhzou,"No.9 Yijing Road Yantang Town Jijtan District Changzhou City,Changhzou,Jiangsu,China",WWW.czjiahui.cn,"Smdll table lamp,  Night lamp,  Holiday gift lightSolar camping lights, waterproof camping lights, dimming camping lightsBulb filament lamp, Edison filament lamp, Class A energy efficiency filament lamp"
"CHANGZHOU JINKAI LIGHTING ELECTRICAL APPARATUS CO.,LTD",China,Changhzou,"NO.11,DONGLONG ROAD,NIUTANG INDUSTRIAL ZONE,WUJIN,CHANGZHOU,JIANGSU,P.R.C,Changhzou,Jiangsu,China",http://www.jinkailighting.com,"METAL HALIDE LAMP, CERAMIC METAL HALIDE LAMPLED, LED filament lampINFRARED HEAT LAMP"
"Changzhou Liyuan New Energy Technology Co.,Ltd",China,Changhzou,"No. 519, Jiangdong Avenue, Jintan District, Changzhou, Jiangsu,Changhzou,Jiangsu,China",www.liyuane.cn,LFPLMFPLFP
"CHANGZHOU MACHINERY & EQUIPMENT IMP. & EXP. CO., LTD.",China,Changhzou,"62 XINGGANG RD.,CHANGZHOU,JIANGSU,CHINA,Changhzou,Jiangsu,China",http://www.amecco.com,"LAWN,GARDEN, LIGHT, SOLARSOLAR, STREET LIGHTSOLAR, STREET LIGHT"
"CHANGZHOU OCEAN IMP. & EXP.CORP.,LTD.",China,Changhzou,"Room 653,Jiaye International Trade Squire,No.99,Yanling West Road Zhonglou District,Changzhou,Jiangsu,China,Changhzou,Jiangsu,China",http://www.ocsonic.com,"4 Gauge 1600 Watt Value AMP Kit CompleteDC power cable; , 2.1*5.5; CCTV cameraRG6 Compression F Type Straight Antenna Cable Conn"
"CHANGZHOU ONE WORLD INTERNATIONAL TRADE CO., LTD.",China,Changhzou,"CF3, R&D HUB 1,MID CHANGWU ROAD, CHANGZHOU, JIANGSU,Changhzou,Jiangsu,China",http://www.cnowi.com,Computer power cableFiltro De LinhaSurge protector
"CHANGZHOU REACH DOUBLEWIN IMP&EXP CO.,LTD",China,Changhzou,"RM513-2 NO.2. NO.88 HUANGHE EAST RD XINBEI ZONE CHANGZHOU JIANGSU CHINA,Changhzou,Jiangsu,China",http://czrqdy.en.e-cantonfair.com/,"Led flood light, Flood light, Out door light, water proof, High brightness, full powerLed flood light, Flood light, Out door light, water proof, High brightness, High power , Led high bayLed flood light, Flood light, Out door light, water proof, High brightness, High power , Modular flood light"
"CHANGZHOU RICHLUX LIGHTING TECHNOLOGY CO., LTD",China,Changhzou,"zhengping village lijia town, wujin, changzhou jiangsu china,Changhzou,Jiangsu,China",,HIGHBAY
"CHANGZHOU SHANGYOU LIANYI ELECTRONIC CO,.LTD.",China,Changhzou,"YOUYI VILLAGE, LUOYANG TOWN, WUJIN DISTRICT, CHANGZHOU, JIANGSU, P.R.CHINA,Changhzou,Jiangsu,China",http://www.sunyooo.com,LED TUBE LIGHTSsolar folding charger portable solar kits 
"Changzhou Shine Science & Technology Co.,Ltd",China,Changhzou,"No.318,Wuyi Road, Economic Development Zone of Qi Shuyan , Changzhou , Jiangsu ,China213025,Changhzou,Jiangsu,China",www.shine-xunan.com,powered air purifying respiratorsWelding helmet &PAPR
"CHANGZHOU SMINTECH CO., LTD.",China,Changhzou,"605-2 BUILDING YIKANG PLAZA,NO.65 GUANHE MIDDLE ROAD,CHANGZHOU,JIANGSU,CHINA.,Changhzou,Jiangsu,China",http://www.smintech.net,"ceiling speaker, speakerceiling speaker, speakerspeaker, ceiling speaker"
"CHANGZHOU TOWNLITE LIGHTING ELECTRIC CO., LTD",China,Changhzou,"NO.118. HOULU VILLAGE, NIUTANG TOWN, CHANGZHOU, JIANGSU, CHINA,Changhzou,Jiangsu,China",http://www.townlite-lighting.com,"LED STREET LIGHT , SOLAR LED STREET LIGHT, SOLAR LED STREET LIGHT 60W, SOLAR LED STREET LIGHT 120W, SOLAR LED STREET LIGHT 180WHPS GROW LIGHT, 600W GROW LIGHT, HPS 600W, 600W SODIUM LAMP, 600W HPS BULBHPS GROW LIGHT, 1000W SODIUM LAMP, 1000W HPS BULB, 1000W GROW LAMP, 1000W DE HPS"
"Changzhou Trendecor Co., Ltd.",China,Changhzou,"Room 1408, Building B, Tianning Times Square, No. 19 Zhulin Xilu, Changzhou, Jiangsu, China,Changhzou,Jiangsu,China",https://trendecor.en.alibaba.com,"light box, neon lights, decorative lights, mood lightslight box, neon lights, decorative lights, mood lightslight box, neon lights, decorative lights, mood lights"
